"name","address","longitude","latitude","bike_stands","available_bike_stands","available_bikes"
"11029 - MENILMONTANT OBERKAMPF","137 BOULEVARD MENILMONTANT - 75011 PARIS",2.38301344042,48.8666176587,40,24,15
"07012 - CITE VANEAU","7 CITE VANEAU - 75007 PARIS",2.31945401006,48.8542683341,36,26,9
"19019 - PETIT HONNEGER","124 RUE PETIT - 75019 PARIS",2.39363751443,48.8863896349,22,5,16
"06006 - NOTRE DAME DES CHAMPS","41 RUE NOTRE DAME DES CHAMPS - 75006 PARIS",2.32933775589,48.8447992886,19,1,18
"09007 - CONDORCET","34 RUE CONDORCET - 75009 PARIS",2.34539633899,48.8798312251,20,10,10
"14013 - LIART AMIRAL MOUCHEZ","1 RUE LIARD - 75014 PARIS",2.34210421456,48.8212276633,14,1,12
"11038 - TEMPLE REPUBLIQUE","44 BD DU TEMPLE - 75011 PARIS",2.36531295078,48.8657450771,45,1,44
"13021 - BOUSSINGAULT - TOLBIAC","55 RUE BOUSSINGAULT - 75013 PARIS",2.342176808,48.8260351661,47,5,40
"34002 - PERI (SAINT OUEN)","128 AVENUE GABRIEL PERI / AVENUE DU CAPITAINE GLAMER - 93400 SAINT OUEN",2.33051356484,48.9025922416,26,26,0
"02005 - MONTORGUEIL RUE MONTMARTRE VERSION 2","46 RUE DE MONTMARTRE - 75002 PARIS",2.34506844014,48.8650219458,15,1,14
"31008 - VINCENNES (MONTREUIL)","7 BIS RUE DE VINCENNES - 93100 MONTREUIL",2.43736866129,48.857702134,56,50,6
"15062 - BOUCICAUT","87 RUE DE LA CONVENTION - 75015 PARIS",2.28586265594,48.8421443316,36,4,31
"04012 - ECOUFFES RIVOLI","2 RUE TIRON - 75004 PARIS",2.35790788214,48.8557966374,28,0,28
"03011 - TURBIGO","55 RUE TURBIGO - 75003 PARIS",2.35627844763,48.8655841911,31,1,24
"10008 - CITE RIVERIN","12 RUE CITE RIVERIN / ANGLE RUE DU CHATEAU D'EAU - 75010 PARIS",2.35872446227,48.8707649819,18,5,12
"42504 - MALON (GENTILLY)","FACE 59 RUE BENOIT MALON - 94250 GENTILLY",2.34107065417,48.8144401796,30,25,5
"10015 - RECOLLETS","46 RUE LUCIE SAMPAIX - 75010 PARIS",2.3624985287,48.8741129165,46,0,43
"19012 - LALLY TOLLENDAL","5 RUE LALLY TOLLENDAL - 75019 PARIS",2.37469338894,48.8827006442,60,37,23
"42006 - BROSSOLETTE (IVRY)","23 RUE PIERRE BROSSOLETTE - 94200 IVRY",2.38146031918,48.8169297206,20,2,18
"06020 - SAINT MICHEL DANTON","2 RUE DANTON - 75006 PARIS",2.34265739289,48.8529304106,35,4,28
"13047 - BOUTROUX VITRY","1 AVENUE BOUTROUX - 75013 PARIS",2.37773843366,48.8226328422,49,16,31
"11001 - BASTILLE RICHARD LENOIR","2 BOULEVARD RICHARD LENOIR - 75011 PARIS",2.36970148822,48.8538482262,40,0,40
"15115 - VAUGIRARD","25-31 BOULEVARD DE VAUGIRARD - 75015 PARIS",2.31829155159,48.8413252598,48,43,5
"17050 - BATIGNOLLES","1 RUE DES BATIGNOLLES - 75017 PARIS",2.32383474909,48.8831039046,17,14,3
"20110 - PORTE DES LILAS","FACE 241 AVENUE GAMBETTA - 75020 PARIS",2.40596033115,48.8754124219,20,20,0
"04103 - HOTEL DE VILLE","1 RUE DES ARCHIVES - 75004 PARIS",2.35397627362,48.8572037877,25,15,10
"35001 - JAURES 1 (PANTIN)","168 AVENUE JEAN JAURES - 93500 PANTIN",2.39932563331,48.9101370951,26,3,19
"02101 - BACHAUMONT","14 RUE BACHAUMONT - 75002 PARIS",2.3454636527,48.8660671501,22,0,22
"32008 - EMGP NORD (SAINT DENIS)","EMGP PARKING ENTREE NORD - 93200 SAINT DENIS",2.36499787716,48.9057454677,35,34,1
"01015 - PLACE ANDRE MALRAUX","2 PLACE ANDRE MALRAUX - 75001 PARIS",2.33559960389,48.8639796552,20,10,9
"15069 - BOUCICAUT FAURE","41 AVENUE FELIX FAURE - 75015 PARIS",2.28838660085,48.841249336,46,6,39
"10032 - DODU","N° 12-14 RUE CLAUDE VELLEFAUX- 75010 PARIS",2.37007170699,48.872859139,32,28,3
"15030 - LINOIS","66 RUE EMERIAU - 75015 PARIS",2.2843806337,48.8480457863,33,15,18
"11020 - CHARONNE","1 RUE DE BELFORT - 75011 PARIS",2.38307245237,48.856317178,36,22,14
"08013 - MARIGNAN","24 RUE DE MARIGNAN - 75008 PARIS",2.3066208349,48.8696161949,33,29,2
"14125 - DAREAU","34 RUE DAREAU - 75014 PARIS",2.3361465572,48.8307232146,24,22,2
"17004 - LEGENDRE AVENUE DE CLICHY","130 RUE LEGENDRE - 75017 PARIS",2.32252897509,48.8889616186,22,19,3
"9104 - CAUMARTIN PROVENCE","115 rue de provence - 75009 PARIS",2.32777869012,48.874179024,30,11,19
"08008 - ROME SAINT LAZARE","1 RUE JOSEPH SANSBOEUF - 75008 PARIS",2.32288436575,48.8753531745,18,0,18
"13023 - BOBILLOT VERLAINE","30 RUE BOBILLOT - 75013 PARIS",2.35303458295,48.8286028908,26,10,16
"20016 - PYRENEES VITRUVE","114 BIS RUE DES PYRENEES - 75020 PARIS",2.40442562518,48.8571294004,19,11,7
"11042 - OBERKAMPF","1 RUE DU GRAND PRIEURE - 75011 PARIS",2.36926143826,48.8646494199,47,18,25
"21707 - PASTEUR (VANVES)","9 AVENUE PASTEUR ANGLE CARREFOUR ALBERT LEGRIS - 92170 Vanves",2.29250033146,48.8250993292,24,15,9
"15047 - DANTZIG","FACE AU 37 RUE MORILLONS - 75015 PARIS",2.2992826416,48.8331797706,52,51,1
"15039 - CHARLES VALLIN","133 RUE DE L'ABBE GROULT - 75015 PARIS",2.30186596838,48.8360583939,12,12,0
"10009 - HITTORFF","FACE 14 RUE HITTORFF - 75010 PARIS",2.35766368562,48.8720836089,17,0,15
"17005 - BROCHANT","43 RUE BROCHANT - 75017 PARIS",2.31973055993,48.8903299891,35,1,34
"35008 - LOLIVE 2 (PANTIN)","132 RUE JEAN LOLIVE - 93500 PANTIN",2.41252957147,48.8927196663,30,25,5
"19006 - MATHIS","6 RUE MATHIS - 75019 PARIS",2.37614246886,48.8906781294,55,45,9
"17009 - BODIN AVENUE DE CLICHY","2 RUE PAUL BODIN - 75017 PARIS",2.31731325811,48.8926339214,33,8,25
"42703 - FONTAINEBLEAU (KREMLIN BICETRE)","93 AVENUE DE FONTAINEBLEAU - 94270 LE KREMLIN BICETRE",2.3626835099,48.809582338,45,43,2
"10006 - PETITES ECURIES","5 RUE DES PETITES ECURIES - 75010 PARIS",2.35403448428,48.8729397678,28,0,27
"18026 - RUISSEAU ORDENER","37 RUE DU RUISSEAU - 75018 PARIS",2.34011963244,48.892895284,33,33,0
"12107 - DIDEROT BOURDAN","146 BOULEVARD DIDEROT - 75012 PARIS",2.39023863314,48.847653881,21,11,10
"03004 - REPUBLIQUE 23","19 PLACE DE LA REPUBLIQUE - 75003 PARIS",2.36351,48.86707,18,0,15
"13010 - PLACE D ITALIE AURIOL","FACE 11 PLACE D'ITALIE - 75013 PARIS",2.35670842076,48.8315826438,40,33,6
"13101 - CROULEBARBE RECULETTES","67-69 RUE DE CROULEBARBE - 75013 PARIS",2.34810865478,48.8311217751,34,5,29
"13151 - GARE D'AUSTERLITZ","GARE D'AUSTERLITZ - 75013 PARIS",2.36612446186,48.8405773029,55,3,52
"01012 - BOURSE DU COMMERCE","FACE 29 RUE JEAN JACQUES ROUSSEAU - 75001 PARIS",2.34155507783,48.8629981668,22,1,20
"34001 - FRUCTIDOR (SAINT OUEN)","FACE 10 RUE FRUCTIDOR / FACE BAT 2 LE COLYSEE - 93400 SAINT OUEN",2.3248198078,48.9008896269,24,7,17
"13031 - ITALIE MAISON BLANCHE","121 AVENUE D'ITALIE - 75013 PARIS",2.35870121788,48.8211593208,31,9,22
"05026 - MOUFFETARD SAINT MEDARD","3 RUE PASCAL - 75005 PARIS",2.34993205296,48.8389938245,49,20,29
"11045 - SAINT SEBASTIEN FROISSARD","12 BD DES FILLES DU CALVAIRE - 75011 PARIS",2.3673523288,48.8612050519,42,6,35
"18046 - FOURCHE","12 RUE ETIENNE JOGELLE - 75018 PARIS",2.32612442031,48.8879401639,33,31,2
"17030 - RENNEQUIN PEREIRE","143 BOULEVARD DE PEREIRE - 75017 PARIS",2.29515206745,48.8836391539,23,5,18
"11035 - GONCOURT","140 AVENUE PARMENTIER - 75011 PARIS",2.37153681066,48.8694696053,53,45,8
"14035 - MAINE GAITE","90 AVENUE DU MAINE - 75014 PARIS",2.32255164002,48.8378836278,48,45,1
"21009 - LECORBUSIER (BOULOGNE-BILLANCOURT)","FACE AU 1 RUE LECORBUSIER - 92100 BOULOGNE-BILLANCOURT",2.24084666482,48.8379982953,46,8,38
"20039 - COURONNES","44 BOULEVARD DE BELLEVILLE - 75020 PARIS",2.3812826011,48.8689406429,48,45,3
"17026 - WAGRAM COURCELLES","105 RUE JOUFFROY D'ABBANS - 75017 PARIS",2.30113837818,48.8818571507,41,15,26
"10152 - GARE DU NORD 2","3 BOULEVARD DE DENAIN - 75010 PARIS",2.35415909596,48.8790493108,25,13,12
"11010 - ST ANTOINE GONNET","1 RUE DES BOULETS - 75011 PARIS",2.39175461419,48.8492592621,41,33,8
"08004 - MALESHERBES PASQUIER","FACE 4 BD MALESHERBES - 75008 PARIS",2.32328899479,48.8704218834,64,25,34
"02003 - ALLEE PIERRE LAZAEFF","189 RUE SAINT DENIS - 75002 PARIS",2.35084459529,48.8661457465,31,0,31
"01026 - COLONEL DRIANT","PLACE DU LIEUTENANT HENRI KARCHER - 75001 PARIS",2.34016976702,48.8634305019,31,14,17
"10114 - HOPITAL SAINT LOUIS","12 BIS RUE DE LA GRANGE AUX BELLES - 75010 PARIS",2.36666943698,48.8747949948,59,18,41
"08030 - MONTAIGNE","25 RUE BAYARD - 75008 PARIS",2.30769160565,48.8672932362,35,9,25
"09030 - VICTOIR CHAUSSEE D ANTIN","79 RUE DE LA VICTOIRE - 75009 PARIS",2.33203631337,48.8751858642,44,9,35
"07018 - SEGUR ESTREES","23 AVENUE DE SEGUR - 75007 PARIS",2.3097476156,48.8512943346,18,10,8
"17013 - LEGENDRE","62 RUE LEGENDRE - 75017 PARIS",2.31647383591,48.8854377309,22,16,6
"18034 - LEIBNITZ","50 RUE LEIBNITZ - 75018 PARIS",2.33339042383,48.8963283485,41,37,3
"05010 - SAINT MICHEL HENRI BARBUSSE","1 RUE HENRI BARBUSSE - 75005 PARIS",2.33930672198,48.8437569813,15,13,2
"09022 - LAFITTE ROSSINI","19 RUE ROSSINI - 75009 PARIS",2.3379808677,48.8733462751,33,25,8
"18044 - CLICHY","132 BOULEVARD DE CLICHY - 75018 PARIS",2.32880709819,48.884127108,32,28,3
"14031 - DIDOT CHATEAU","13 RUE DIDOT - 75014 PARIS",2.3215,48.8337,22,19,3
"19116 - JAURES VILLETTE","180 BOULEVARD DE LA VILLETTE - 75019 PARIS",2.37026248226,48.8814724985,30,26,3
"34010 - DIDEROT 2 (SAINT OUEN)","FACE 61-63 RUE DIDEROT- 93400 SAINT OUEN",2.33391012713,48.9115704593,50,16,33
"22006 - PIERRET (NEUILLY)","33 RUE PIERRET - 92200 NEUILLY SUR SEINE",2.26009698393,48.8830266592,25,21,4
"15038 - PLACE ADOLPHE CHERIOUX","18 PLACE ADOLPHE CHERIOUX - 75015 PARIS",2.30065445929,48.8396350806,66,49,17
"02016 - ABOUKIR","108 RUE D'ABOUKIR - 75002 PARIS",2.35018588824,48.8686604815,21,11,10
"04015 - MAIRIE DU 4 EME","25 RUE DU PONT LOUIS PHILIPPE - 75004 PARIS",2.35638115487,48.8559658562,16,0,16
"10004 - METZ","7 RUE DE METZ - 75010 PARIS",2.35352156501,48.870893426,63,0,61
"13053 - CHEVALERET TOLBIAC","56 RUE CHEVALERET - 75013 PARIS",2.37593455801,48.8294101346,21,4,17
"13118 - PATAY REGNAULT","36-38 RUE REGNAULT - 75013 PARIS",2.37606009169,48.8243428569,63,22,41
"08005 - MADELEINE","04 PLACE DE LA MADELEINE - 75008 PARIS",2.3244296305,48.8690900883,37,28,8
"11037 - FAUBOURG DU TEMPLE PLACE DE LA REPUBLIQUE","2 RUE DU FAUBOURG DU TEMPLE - 75011 PARIS",2.36498,48.868,38,0,38
"13008 - ITALIE ROSALIE","FACE 2 PLACE D'ITALIE - 75013 PARIS",2.3548094727,48.8319963692,53,10,40
"21110 - VILLENEUVE (CLICHY)","FACE 51 RUE VILLENEUVE - 92110 CLICHY",2.31082038171,48.9055031145,35,15,20
"10001 - JOHANN STRAUSS","FACE 50 RUE RENE BOULANGER - 75010 PARIS",2.35997004961,48.8684999417,62,10,50
"17040 - TERNES PEREIRE","227 BOULEVARD PEREIRE SUR TPC - 75017 PARIS",2.28795645234,48.8798132183,46,1,45
"02015 - OPERA - CAPUCINES","25 RUE LOUIS LE GRAND - 75002 PARIS",2.33405446194,48.8705089372,31,1,30
"15009 - SUFFREN","140 AVENUE DE SUFFREN - 75015 PARIS",2.3070521476,48.8471756149,46,1,44
"12036 - REUILLY","116 RUE DE REUILLY - 75012 PARIS",2.39463039872,48.840302745,42,37,4
"18122 - BINET","5 RUE BINET - 75018 PARIS",2.34296347731,48.8992688633,29,27,2
"00908 - PORT DU GROS CAILLOU (STATION MOBILE)","QUAI D'ORSAY - PORT DU GROS CAILLOU - 75007 PARIS",2.30652,48.86288,20,10,10
"06013 - JACQUES CALLOT","1 RUE JACQUES CALLOT - 75006 PARIS",2.33753933406,48.8552546878,28,2,26
"19119 - BOURET PAILLERON","20 RUE EDOUARD PAILLERON - 75019 PARIS",2.37685300056,48.8805744614,26,20,2
"06003 - SAINT SULPICE","15 RUE DU VIEUX COLOMBIER - 75006 PARIS",2.33081707439,48.8516478481,21,13,8
"11025 - FROMENT BREGUET","9 RUE FROMENT - 75011 PARIS",2.37289470307,48.8570414505,48,9,39
"17037 - BAYERN PEREIRE","40 RUE BAYEN - 75017 PARIS",2.29214066583,48.8818307175,22,3,19
"12042 - MONTEMPOIVRE","36-38 boulevard Soult - 75012 PARIS",2.40922942058,48.8403981722,42,6,36
"10023 - VERDUN","1 AVENUE DE VERDUN - 75010 PARIS",2.36091490832,48.8761560543,14,8,6
"18002 - CLIGNANCOURT","25 RUE DE CLIGNANCOURT - 75018 PARIS",2.34721103754,48.8853016219,24,22,2
"18032 - PORTE DE CLIGNANCOURT","FACE 59 RUE BELLIARD - 75018 PARIS",2.34399649934,48.8974884597,32,23,7
"14127 - ODESSA","5-7 RUE D'ODESSA - 75014 PARIS",2.32444156514,48.8428422781,40,18,22
"15125 - AQUABOULEVARD","2 AVENUE DE LA PORTE DE SEVRES / AQUABOULEVARD - 75015 PARIS",2.27663033405,48.833219823,50,2,48
"05034 - CENSIER","21 RUE CENSIER - 75005 PARIS",2.35371355203,48.8405086637,69,7,62
"16121 - SABLONS MAILLOT","ROUTE PORTE DES SABLONS / PORTE MAILLOT - 75016 PARIS",2.27056809721,48.8787208918,33,26,7
"09016 - MARTYRS CHORON","24 RUE DE CHORON - 75009 PARIS",2.33978496751,48.8777706953,17,8,9
"09037 - CLICHY PARME","01 RUE DE PARME - 75009 PARIS",2.32819709345,48.8812664242,23,21,2
"19003 - QUAI DE SEINE","3 QUAI DE LA SEINE - 75019 PARIS",2.36982957957,48.8843161806,25,15,9
"14023 - MALAKOFF PINARD","76-78 BOULEVARD ADOLPHE PINARD - 75014 PARIS",2.30776682559,48.8236534803,49,46,3
"17101 - ALEXANDRE CHARPENTIER","FACE 3 RUE ALEXANDRE CHARPENTIER - 75017 PARIS",2.28827375264,48.8843411247,23,2,21
"13014 - GARE D'AUSTERLITZ","5 BIS BOULEVARD DE L'HOPITAL - 75013 PARIS",2.36404495866,48.8425244908,14,0,14
"15048 - OLIVIER DE SERRE","PLACE AMEDEE GIORDANI - 75015 PARIS",2.2920463967,48.8305456694,22,20,2
"14017 - JOURDAN TOMBE ISSOIRE","160 RUE TOMBE ISSOIRE - 75014 PARIS",2.33053754038,48.822782442,43,40,3
"11036 - JULES FERRY FAUBOURG DU TEMPLE","FACE 28 RUE JULES FERRY - 75011 PARIS",2.36784149724,48.8684101048,58,1,57
"05004 - SAINT JACQUES VAL DE GRACE","272 RUE SAINT JACQUES - 75005 PARIS",2.34120202666,48.8418659565,19,18,1
"14012 - SIBELLE ALESIA","FACE 2 AVENUE DE LA SIBELLE - 75014 PARIS",2.33863632416,48.8267039412,24,13,11
"42007 - PIERRE ET MARIE CURIE (IVRY)","Angle Avenue de Verdun et rue Pierre et Marie Curie - 94200 IVRY",2.37065026342,48.8128905615,28,20,8
"23006 - GUESDE (LEVALLOIS)","8 RUE JULES GUESDE - 92300 LEVALLOIS-PERRET",2.29500037014,48.8908603229,25,0,25
"03014 - GRENIER SAINT LAZARE","FACE 34 RUE GRENIER SAINT LAZARE - 75003 PARIS",2.35283938072,48.8630628327,31,0,31
"06026 - SAINT PLACIDE CHERCHE MIDI","28 RUE SAINT PLACIDE - 75006 PARIS",2.32517538941,48.8491399032,66,23,43
"22010 - DE GAULLE 4 (NEUILLY)","72 AVENUE CHARLES DE GAULLE - 92200 NEUILLY SUR SEINE",2.27117749892,48.881674446,27,14,13
"14014 - STADE CHARLETY","5 BOULEVARD JOURDAN - 75014 PARIS",2.34337661053,48.8194013049,60,6,54
"12005 - CROZATIER","74 RUE CROZATIER - 75012 PARIS",2.37890136621,48.8504400134,30,7,22
"15106 - GRENELLE VIOLET (PROP3)","BOULEVARD DE GRENELLE - 75015 PARIS",2.29466057588,48.8499211019,67,16,51
"18043 - BLANCHE","55 BOULEVARD DE CLICHY - 75018 PARIS",2.33341862941,48.8835647449,20,12,8
"17015 - PLACE DE LEVIS","19BIS/21 RUE LEGENDRE - 75017 PARIS",2.3132844054,48.8836882175,49,20,28
"42011 - BOYER (IVRY)","26 QUAI MARCEL BOYER - 94200 IVRY",2.39285038241,48.8221153438,29,22,7
"05009 - SQUARE VIVIANI","6 RUE DU FOUARRE - 75005 PARIS",2.34746333452,48.8516511794,16,2,13
"21208 - CARVES (MONTROUGE)","67 RUE CARVES ANGLE AVENUE HENRI GINOUX - 92120 MONTROUGE",2.31978793669,48.8130809114,30,28,2
"18023 - POISSONNIERS ORDENER","57 RUE ORDENER - 75018 PARIS",2.35128866622,48.8912138908,34,30,4
"18047 - ST OUEN LAMARCK","53 AVENUE DE SAINT OUEN - 75018 PARIS",2.32673569484,48.8910830403,33,19,14
"03005 - TURBIGO SAINTE ELISABETH","7 RUE SAINTE ELISABETH - 75003 PARIS",2.35966114363,48.8661372246,33,9,24
"18031 - ALBERT KAHN","67 RUE CHAMPIONNET - 75018 PARIS",2.34558558413,48.8957969798,46,30,15
"20028 - GAMBETTA MARTIN NADAUD","FACE 2 RUE ORFILA - 75020 PARIS",2.39446858114,48.8651864128,49,48,1
"42205 - PARIS 1 (CHARENTON)","89 RUE DE PARIS - 94220 CHARENTON",2.41260278647,48.8221431258,22,11,11
"21704 - REPUBLIQUE (VANVES)","2 RUE DE LA REPUBLIQUE - 92170 VANVES",2.28539562483,48.8217026999,25,25,0
"12020 - COURS DE VINCENNES - BD SOULT","FACE 118 COURS DE VINCENNES - 75012 PARIS",2.41014549656,48.84698907,45,44,1
"35010 - GERVAIS (PANTIN)","1-3 RUE DU PRE SAINT GERVAIS - 93500 PANTIN",2.40277551969,48.8910789763,24,4,19
"15012 - MADEMOISELLE","76 RUE CAMBRONNE - 75015 PARIS",2.30230766886,48.84327733,67,15,52
"20034 - SORBIER - MÉNILMONTANT","1 RUE SORBIER - 75020 PARIS",2.38979540954,48.8685264711,24,24,0
"42010 - ROBESPIERRE (IVRY)","1 RUE ROBESPIERRE - 94200 IVRY",2.38395086342,48.8108458646,53,0,53
"20009 - DOCTEUR DEJERINE","RUE DES DOCTEURS DEJERINE - 75020 PARIS",2.41205801661,48.8540232845,20,20,0
"16020 - PORTE DE PASSY","1 PLACE DE LA PORTE DE PASSY - 75016 PARIS",2.26427707208,48.857382128,35,8,27
"01013 - SAINT HONORE","186 RUE SAINT HONORE - 75001 PARIS",2.33852013115,48.8624302348,66,20,46
"04010 - SAINT PAUL PAVÉE","105-109 TERRE PLEIN SAINT PAUL - 75004 PARIS",2.36120353876,48.855023999,26,4,21
"08104 - FRIEDLAND CHATEAUBRIAND","27/31 RUE DE CHATEAUBRIAND - 75008 PARIS",2.29991625787,48.8740144756,31,30,1
"07017 - LA TOUR MAUBOURG","1 AVENUE DE LA MOTTE PICQUET - 75007 PARIS",2.31025792753,48.8572764983,39,21,12
"13123 - BIBLIOTHÈQUE FRANÇOIS MITTERAND","53 QUAI FRANCOIS MAURIAC - 75013 PARIS",2.37606810031,48.8350507158,29,8,20
"10026 - CHATEAU LANDON","2 RUE DE CHATEAU LANDON - 75010 PARIS",2.362424,48.879305,59,59,0
"14018 - PORTE D'ORLEANS","6 PLACE DU 25 AOUT 1944 - 75014 PARIS",2.32504267092,48.8228575017,47,44,3
"06010 - MONTPARNASSE CHEVREUSE","5 RUE DE CHEVREUSE - 75006 PARIS",2.33155221674,48.8417391612,15,7,7
"08018 - SAINT AUGUSTIN","18 PLACE HENRI BERGSON - 75008 PARIS",2.31979392397,48.8762011622,32,20,8
"41602 - DIGEON (SAINT MANDE)","PLACE CHARLES DIGEON - 94160 SAINT MANDE",2.41831747657,48.8435469599,32,3,29
"05030 - SORBONNE","5 RUE DE LA SORBONNE - 75005 PARIS",2.34357357573,48.8497703706,50,6,44
"21103 - HUGO (CLICHY)","94-98 BOULEVARD VICTOR HUGO - 92110 CLICHY",2.31712992066,48.9014601568,25,9,16
"19008 - CORENTIN CARIOU","177 AVENUE DE FLANDRE - 75019 PARIS",2.38186872951,48.89465025,25,0,24
"42704 - ROSSEL (LE KREMLIN BICETRE)","RUE ROSSEL / AVENUE DE LA CONVENTION - 94270 LE KREMLIN BICETRE",2.35697189329,48.8120128143,25,21,4
"15022 - ZOLA","143 AVENUE EMILE ZOLA - 75015 PARIS",2.29623845051,48.8470986841,39,5,34
"03002 - SAINT GILLES","26 RUE SAINT GILLES - 75003 PARIS",2.3647149921,48.8581589568,18,2,16
"16039 - VERSAILLES EXELMANS","27 BOULEVARD EXELMANS - 75016 PARIS",2.26439411808,48.8409629526,46,9,36
"07019 - ECOLE MILITAIRE","85 AVENUE BOSQUET - 75007 PARIS",2.3054786342,48.854951168,47,12,34
"01005 - LES HALLES - SEBASTOPOL","3 RUE DE LA COSSONNERIE - 75001 PARIS",2.34939999975,48.8612620698,33,4,29
"22402 - JAURES (MALAKOFF)","10 AVENUE JEAN JAURES - 92240 MALAKOFF",2.30289945997,48.8214600798,50,48,2
"21210 - PERI 2 (MONTROUGE)","8 RUE GABRIEL PERI - 92120 MONTROUGE",2.3240312783,48.8178170939,32,30,2
"17024 - VILLIERS","1/3 PLACE PROSPER GOUBAUX - 75017 PARIS",2.3164496408,48.8812083328,12,9,3
"13054 - PAU CASALS","1 RUE PAU CASALS - 75013 PARIS",2.37726323688,48.8312449684,54,6,46
"22405 - NORD (MALAKOFF)","ANGLE PASSAGE DU NORD / GABRIEL PERI - 92240 MALAKOFF",2.30047686505,48.8193391584,25,23,2
"08051 - CHAPTAL","45 BD BATIGNOLLES - 75008 PARIS",2.320284,48.881914,14,6,8
"18109 - RIQUET PAJOL","55 RUE PAJOL - 75018 PARIS",2.36285360426,48.8895969709,46,35,9
"07025 - SUFFREN TOUR EIFFEL","2 AVENUE OCTAVE CREARD - 75007 PARIS",2.29317875433,48.8565029777,33,24,9
"10003 - HAUTEVILLE","1 RUE D'HAUTEVILLE - 75010 PARIS",2.34964963683,48.8707743602,17,0,15
"06028 - ODEON QUATRE VENTS","6 RUE DES QUATRE VENTS - 75006 PARIS",2.33816169513,48.8517513745,36,0,36
"11026 - CHEMIN VERT SAINT MAUR","105 RUE DU CHEMIN VERT - 75011 PARIS",2.38130190492,48.8611944193,46,42,4
"22007 - CHARCOT (NEUILLY)","35-37 BOULEVARD DU COMMANDANT CHARCOT - 92200 NEUILLY SUR SEINE",2.25569933163,48.8753602839,36,26,10
"13006 - SAINT MARCEL JEANNE D'ARC","02 RUE DUMERIL - 75013 PARIS",2.35710844956,48.8381516081,41,0,41
"21305 - MADAULE (ISSY LES MOULINEAUX)","PLACE MADAULE - 92130 ISSY LES MOULINEAUX",2.26064598549,48.8241259046,25,8,17
"06017 - SENAT CONDE","34 RUE CONDE - 75006 PARIS",2.33784843718,48.8495800022,34,0,34
"13044 - PLACE JEANNE D'ARC","20 PLACE JEANNE D'ARC - 75013 PARIS",2.36912681572,48.8295757268,36,31,4
"04005 - SULLY MORLAND","2 QUAI DES CELESTINS - 75004 PARIS",2.36243021298,48.8512714821,15,5,9
"12001 - BASTILLE","48 BOULEVARD DE LA BASTILLE - 75012 PARIS",2.36925048358,48.8513111874,64,1,62
"16035 - HIPPODROME D AUTEUIL","ALLEE DES FORTIFICATIONS - 75016 PARIS",2.25765156147,48.848892821,66,49,17
"10018 - ALBAN SATRAGNE","110-112 RUE FAUBOURG SAINT DENIS - 75010 PARIS",2.35609401864,48.8753849056,30,3,27
"20007 - BUZENVAL","52 RUE BUZENVAL - 75020 PARIS",2.40151359731,48.851617205,50,43,7
"16004 - BOULEVARD LANNES","FACE 2 BOULEVARD LANNES - 75016 PARIS",2.27487529834,48.870753284,70,48,18
"18102 - RUE DE LA CHAPELLE","69 BIS RUE DE LA CHAPELLE - 75018 PARIS",2.35884552523,48.8964828319,33,25,4
"05028 - CENSIER BUFFON","6 RUE CENSIER - 75005 PARIS",2.35543071424,48.841080022,55,20,33
"16001 - AVENUE DES PORTUGAIS","2 AVENUE DES PORTUGAIS - 75016 PARIS",2.29369213365,48.8712137122,26,18,5
"05012 - ULM - LHOMOND","20 RUE DE L'ESTRAPADE - 75005 PARIS",2.34541268121,48.845143494,15,12,3
"16009 - SAINT DIDIER","32 RUE SAINT DIDIER - 75016 PARIS",2.2857459443,48.8664391603,16,14,2
"01024 - LOUVRE COQ HERON","20 RUE COQUILLIERE - 75001 PARIS",2.34270756198,48.863772832,20,2,18
"14021 - PLACE DE LA PORTE DE CHATILLON","BOULEVARD BRUNE PORTE DE CHATILLON - 75014 PARIS",2.31844743105,48.8244897025,59,58,1
"01014 - RIVOLI MUSEE DU LOUVRE","5 RUE DE L'ECHELLE - 75001 PARIS",2.33405760805,48.8636722554,25,16,9
"11102 - RUE DES BOULETS ( COMPLEMENTAIRE )","3 RUE ALEXANDRE DUMAS - 75011 PARIS",2.38914764081,48.8528886704,58,39,19
"42003 - INSURRECTION AOUT 1944 (IVRY)","2 PLACE DE L'INSURRECTION AOUT 1944 - 94200 IVRY SUR SEINE",2.39826154064,48.8146600822,30,0,30
"13114 - NATIONALE DUCHAMP (PROP 1)","46 RUE NATIONALE - 75013 PARIS",2.36773548985,48.8248108408,22,13,9
"04101 - BASTILLE","11 RUE DE LA BASTILLE - 75004 PARIS",2.36840080696,48.853797345,20,1,18
"08032 - MATIGNON","27 AVENUE MATIGNON - 75008 PARIS",2.31388541995,48.8714764213,67,19,48
"18009 - LEPINE","12 RUE JEAN FRANCOIS LEPINE - 75018 PARIS",2.35685562753,48.886114668,22,19,3
"06012 - SAINT GERMAIN COPEAU","141 BD SAINT GERMAIN - 75006 PARIS",2.33446546188,48.8533052776,18,4,13
"19015 - THIONVILLE","24 RUE DE THIONVILLE - 75019 PARIS",2.38337541728,48.8891549176,21,16,5
"15004 - VAUGIRARD PASTEUR","DEV 71 BOULEVARD DE VAUGIRARD - 75015 PARIS",2.3153630382,48.8405958674,21,18,3
"13027 - MAZAGRAND COUBERTIN","AVENUE DE LA PORTE DE GENTILLY - 75013 PARIS",2.34418192299,48.8162582572,15,10,5
"31707 - VAILLANT (BAGNOLET)","FACE 70 RUE EDOUARD VAILLANT - 93170 BAGNOLET",2.414860628,48.8583956785,49,49,0
"14019 - SARETTE GENERAL LECLERC","58 RUE SARRETTE - 75014 PARIS",2.3264128694,48.8250308529,22,15,7
"12029 - DUGOMMIER","FACE 4 BOULEVARD DE REUILLY - 75012 PARIS",2.38972450812,48.8388490234,55,15,40
"21102 - NATIONS UNIES (CLICHY)","PLACE DES NATIONS UNIES - 92110 CLICHY",2.30990049821,48.8971098501,25,4,21
"11041 - SAINT AMBROISE","2 RUE LACHARRIERE - 75011 PARIS",2.37563652587,48.8608207061,37,8,29
"17042 - PORTE MAILLOT","FACE 279 BOULEVARD PEREIRE - 75017 PARIS",2.28444435655,48.8777500334,31,11,20
"22013 - SAINTE FOY (NEUILLY)","2 rue de Chézy - 92200 NEUILLY",2.26780000825,48.8851400531,31,23,8
"16040 - EXELMANS","73 BIS BOULEVARD EXELMANS - 75016 PARIS",2.25982139174,48.8431044947,33,14,18
"11110 - SQUARE ROQUETTE","176 RUE DE LA ROQUETTE - 75011 PARIS",2.38659328921,48.8592429763,52,52,0
"08037 - MALSHERBES MONCEAU","75 RUE DE MONCEAU - 75008 PARIS",2.31455352419,48.8796064572,37,22,14
"18016 - FRANCOEUR CAULAINCOURT","1 RUE FRANCOEUR - 75018 PARIS",2.34245001268,48.8900229034,32,31,1
"21020 - REPUBLIQUE 2 (BOULOGNE-BILLANCOURT)","28 Bd de la République 92100 BOULOGNE BILLANCOURT",2.25371998801,48.8319998154,28,9,17
"16036 - PORTE MOLITOR","PLACE DE LA PORTE MOLITOR - 75016 PARIS",2.2569395374,48.8452443139,60,22,38
"19117 - EURYALE DEHAYNIN","22 RUE EURYALE DEHAYNIN - 75019 PARIS",2.37738886313,48.8863000511,30,12,16
"06022 - MARCHE SAINT GERMAIN - MABILLON","17 RUE LOBINEAU - 75006 PARIS",2.33550466501,48.8516596929,21,1,20
"23003 - WILSON (LEVALLOIS)","132 RUE DU PRESIDENT WILSON - 92300 LEVALLOIS",2.28508993358,48.8983400023,25,0,25
"16122 - MUETTE NEUILLY","ROUTE DE LA MUETTE A NEUILLY - 75016 PARIS",2.25857658988,48.8800796431,50,34,12
"15123 - RUE DU COMMERCE","20 RUE DU COMMERCE - 75015 PARIS",2.29668168569,48.8479921935,42,17,24
"31006 - REPUBLIQUE 2 (MONTREUIL)","2/4 PLACE DE LA REPUBLIQUE - 93100 MONTREUIL",2.42444580801,48.8537596163,27,25,2
"31709 - MARCEL (BAGNOLET)","FACE AU 184 RUE ETIENNE MARCEL - 93170 BAGNOLET",2.42254995671,48.8570503947,23,23,0
"07007 - MUSÉE D'ORSAY","62 RUE DE LILLE - 75007 PARIS",2.32580902463,48.8597101044,65,54,10
"15028 - DUPLEIX","54 BOULEVARD DE GRENELLE - 75015 PARIS",2.29188931323,48.8513967211,69,46,23
"13037 - IVRY BAUDICOURT","76 AVENUE D'IVRY - 75013 PARIS",2.36310607358,48.8246959954,20,18,2
"20015 - BAGNOLET-ORTEAUX","44 BIS RUE DE BAGNOLET - 75020 PARIS",2.398472,48.8571433921,38,30,8
"12015 - NATION PICPUS","FACE 67 BOULEVARD DE PICPUS - 75012 PARIS",2.39986827743,48.8469643595,36,33,3
"42201 - NECKER (CHARENTON)","RUE NECKER/ RUE DU PORT AUX LIONS - 94220 CHARENTON",2.39999842013,48.8239632523,26,4,22
"20017 - RUE SAINT BLAISE","69 RUE SAINT BLAISE - 75020 PARIS",2.40884245741,48.85697494,27,23,4
"18028 - VAUVENARGUES","195 RUE CHAMPIONNET - 75018 PARIS",2.33219933598,48.8940572513,33,31,2
"10040 - BELLEVILLE","8 BOULEVARD DE LA VILETTE - 75010 PARIS",2.37634839465,48.8727781565,48,47,1
"12151 - GARE DE LYON","GARE DE LYON - 75012 PARIS",2.37264984463,48.8455150898,60,12,48
"13116 - PLACE DU DOCTEUR YERSIN","FACE 5 AVENUE DE LA PORTE D'IVRY - 75013 PARIS",2.37220930965,48.8202267926,18,17,1
"08025 - MIROMESNIL","39 RUE DE MIROMESNIL - 75008 PARIS",2.31587630835,48.8737604721,33,11,18
"14033 - DAGUERRE GASSENDI","31 RUE FRODEVAUX - 75014 PARIS",2.32829082205,48.8356804442,38,35,3
"21018 - SEINE (BOULOGNE-BILLANCOURT)","FACE AU 13 RUE DE LA SEINE - 92100 BOULOGNE-BILLANCOURT",2.25065773964,48.8282434942,26,6,20
"15053 - LECOURBE","250 RUE LECOURBE - 75015 PARIS",2.29154050795,48.8392220978,45,33,12
"03007 - ARCHIVES PASTOURELLE","67 RUE DES ARCHIVES - 75003 PARIS",2.35944703195,48.8624012119,28,10,18
"13103 - SAINT MARCEL","89 BOULEVARD DE L'HOPITAL - 75013 PARIS",2.36046033648,48.8377276875,50,6,44
"21204 - D'ORVES (MONTROUGE)","FACE 44 RUE D'ESTIENNES D'ORVES / PISCINE - 92120 MONTROUGE",2.32088679076,48.8153882204,31,28,3
"17002 - LA FOURCHE RUE DE LA CONDAMINE","4 RUE DE LA CONDAMINE - 75017 PARIS",2.32440044544,48.8879013455,37,34,2
"20008 - MARAICHERS","73 RUE DES PYRENEES - 75020 PARIS",2.40587104453,48.8532468982,31,28,2
"04002 - MARCHE AUX FLEURS","PLACE LOUIS LEPINE - 75004 PARIS",2.34735644764,48.8552533608,24,7,16
"14011 - ALESIA SARRETTE","6 RUE SARRETTE - 75014 PARIS",2.33172937899,48.827525292,23,11,12
"08105 - FRANCOIS 1ER LINCOLN","56 RUE FRANCOIS 1ER - 75008 PARIS",2.30242621884,48.8695179793,31,15,16
"18022 - BARBES MARCADET","57 RUE MARCADET - 75018 PARIS",2.34905739297,48.890451121,47,47,0
"17116 - REIMS","6 BOULEVARD DE REIMS - 75017 PARIS",2.30014465995,48.8918344482,33,4,29
"13022 - BUTTE AUX CAILLES","27 ET 36 RUE DE LA BUTTE AUX CAILLES - 75013 PARIS",2.34906350669,48.8275643799,36,30,2
"20018 - HARPIGNIES","2 RUE HARPIGNIES- 75020 PARIS",2.40994255388,48.8586216694,36,34,2
"14108 - JOURDAN LE BRIX ET MESNIN","RUE LE BRIX ET MESNIN - 75014 PARIS",2.3278616533,48.8223409659,21,17,4
"05022 - CARDINAL LEMOINE","40 RUE BOU LANGERS - 75005 PARIS",2.35222292161,48.8462950317,17,2,14
"12038 - BEL AIR","FACE 12 BOULEVARD PICPUS - 75012 PARIS",2.40052566855,48.8399887889,39,31,8
"19109 - PLACE DU MAROC","27 RUE DE TANGER - 75019 PARIS",2.3688563905,48.8862334174,19,13,6
"09108 - ROCHECHOUART MAUBEUGE","25 RUE DE ROCHECHOUART - 75009 PARIS",2.34478560299,48.877890015,33,12,21
"15025 - AMETTE","26 RUE DUPLEIX - 75015 PARIS",2.29671030093,48.8514541821,48,33,15
"20047 - COURS DE VINCENNES BD DAVOUT","107 COURS DE VINCENNES - 75020 PARIS",2.4103900082,48.8473310531,48,47,1
"15026 - BIR HAKEIM","FACE 6 BOULEVARD DE GRENELLE - 75015 PARIS",2.28970534822,48.8538440543,32,4,28
"18101 - CHAMPIONNET","32 RUE CHAMPIONNET - 75018 PARIS",2.34986545092,48.8954703704,22,17,5
"42702 - LECLERC (KREMLIN BICETRE)","73 RUE DU GENERAL LECLERC - 94270 LE KREMELIN BICETRE",2.35817289646,48.8104774996,20,19,0
"14110 - ABBE CARTON","89 RUE DE L'ABBE CARTON - 75014 PARIS",2.32071409809,48.8277462661,24,18,6
"07021 - BOSQUET SAINT DOMINIQUE","37 AVENUE BOSQUET - 75007 PARIS",2.30371658023,48.8586517095,50,21,28
"15041 - LABROUSTE","13 RUE FRANQUET - 75015 PARIS",2.30689847821,48.8328539083,36,29,7
"13055 - LAGROUA","18 RUE MARIE ANDREE LAGROUA - 75013 PARIS",2.38022060627,48.8285952839,61,25,36
"01016 - OPERA PYRAMIDES","27 RUE THERESE - 75001 PARIS",2.33443342122,48.8664835145,25,8,17
"20131 - REPOS","41 RUE DU REPOS - 75020 PARIS",2.38961313668,48.8593585236,33,18,15
"17001 - GUY MOCQUET","RUE GUY MOCQUET - 75017 PARIS",2.32680348983,48.892822963,45,27,18
"20113 - PARC DE BELLEVILLE","30 RUE PIAT - 75020 PARIS",2.38498139028,48.8719562664,21,21,0
"20044 - DAVOUT VOLGA","63 BOULEVARD DAVOUT / ANGLE 84 RUE VOLGA 75020 PARIS",2.41052290978,48.85291968,27,27,0
"10105 - BONNE NOUVELLE PROP2","2 RUE DE MAZAGRAN - 75010 PARIS",2.35128163669,48.8702780786,24,0,24
"12027 - MONTGALLET CHARENTON","2 RUE MONTGALLET - 75012 PARIS",2.38616492781,48.8426477787,16,4,12
"31004 - PARIS 2 (MONTREUIL)","175/179 RUE DE PARIS - 93100 MONTREUIL",2.42205573361,48.8555013129,46,45,1
"16028 - MILLET - JEAN DE LA FONTAINE","12 RUE FRANCOIS MILLET - 75016 PARIS",2.27246948292,48.8510048747,66,14,52
"01001 - ILE DE LA CITE PONT NEUF","41 QUAI DE L'HORLOGE - 75001 PARIS",2.34174799516,48.8570916352,16,4,12
"21207 - VERDIER (MONTROUGE)","AVENUE VERDIER ANGLE AVENUE DE LA REPUBLIQUE - 92120 MONTROUGE",2.31702986373,48.8155296337,29,27,2
"18114 - LEPIC VERON","35 RUE VERON - 75018 PARIS",2.33461773564,48.8852579713,21,20,1
"09035 - PLACE DE BUDAPEST","38 RUE DE LONDRES - 75009 PARIS",2.32733929071,48.877753234,44,12,32
"18006 - MARCHE ST-PIERRE","PLACE SAINT PIERRE - 75018 PARIS",2.34413928595,48.8846916064,33,24,9
"14117 - MOUCHOTTE","5 RUE DU COMMANDANT RENE MOUCHOTTE - 75014 PARIS",2.32095412573,48.8393250251,39,37,2
"09010 - CADET","1/3 RUE DE ROCHECHOUART - 75009 PARIS",2.34439302185,48.8767198951,23,10,13
"16002 - PERGOLESE","FACE 25 RUE PERGOLESE - 75016 PARIS",2.28421943206,48.8751849611,38,13,25
"11027 - SAINT AMBROISE PARMENTIER","17 RUE SAINT AMBROISE - 75011 PARIS",2.37722985857,48.8621350385,38,32,6
"09113 - BLEUE","5 RUE BLEUE - 75009 PARIS",2.3473032303,48.875821855,30,3,27
"16123 - MAHATMA GANDHI","Avenue du Mahatma Gandhi face à la Fondation Louis Vuitton dans le Bois de Boulogne - 75016 PARIS",2.264205,48.876356,25,24,1
"08001 - PETIT PALAIS","AV. DUTUIT - 75008 PARIS",2.31577971341,48.8668438033,41,7,34
"03101 - PORTE SAINT MARTIN","62 RUE MESLAY - 75003 PARIS",2.35559159278,48.868636405,34,1,21
"15061 - DESNOUETTES","12 SQUARE DESNOUETTES - 75015 PARIS",2.28414229739,48.8347683793,22,15,6
"07003 - BON MARCHE","RUE VELPEAU - 75007 PARIS",2.32507003874,48.8512303803,59,37,22
"12030 - WATTIGNIES","245 RUE DE CHARENTON - 75012 PARIS",2.39179585556,48.8366757964,33,14,19
"08015 - ROQUEPINE","4 RUE ROQUEPINE - 75008 PARIS",2.32028123421,48.8734861693,44,24,14
"10002 - STRASBOURG","3 BD STRASBOURG - 75010 PARIS",2.35432769738,48.8696791245,17,0,16
"15114 - PASTEUR COTENTIN","FACE 1 RUE DU COTENTIN - 75015 PARIS",2.31616841206,48.83893691,33,33,0
"10153 - GARE DU NORD 3","7 BOULEVARD DE DENAIN - 75010 PARIS",2.35446313115,48.8795777185,20,20,0
"43004 - MONTREUIL (VINCENNES)","43 RUE DE MONTREUIL - 94300 VINCENNES",2.43451378622,48.8504183668,25,14,11
"02009 - BOURSE","1 RUE DES FILLES SAINT THOMAS - 75002 PARIS",2.33973140109,48.8688516894,59,54,5
"14101 - PLACE FERNAND MOURLOT","33 BD EDGAR QUINET - 75014 PARIS",2.32327771564,48.8415048015,33,28,5
"13030 - ITALIE TOLBIAC","88 AVENUE D'ITALIE - 75013 PARIS",2.35721535751,48.8258394607,40,32,7
"16023 - RUE DE PASSY","1 RUE DE PASSY - 75016 PARIS",2.28412901289,48.8583812529,33,28,5
"10035 - AUBERVILLIERS","1 BOULEVARD DE LA CHAPELLE - 75010 PARIS",2.36416332987,48.8843481513,24,21,3
"13016 - PRIMO LEVI","9 RUE PRIMO LEVI - 75013 PARIS",2.37965351593,48.8309484485,62,8,54
"19023 - MANIN SIMON BOLIVAR","FACE 1 RUE MANIN - 75019 PARIS",2.3794073626,48.8764996541,23,22,1
"11014 - NATION TRONE","FACE 21 PLACE DE LA NATION - 75011 PARIS",2.39721188194,48.8484828166,55,51,3
"02011 - BIBLIOTHEQUE NATIONALE","71 RUE DE RICHELIEU - 75002 PARIS",2.33808978228,48.8682998892,26,21,5
"00903 - QUAI MAURIAC  / PONT DE BERCY","FETE DE L'OH (BERCY) - QUAI MAURIAC ANG PONT DE BERCY - 75013 PARIS",2.37434055461,48.8371336895,19,5,14
"19041 - PYRÉNÉES","101 RUE DE BELLEVILLE - 75019 PARIS",2.386095374,48.8743491365,42,41,0
"11031 - PARMENTIER","1 RUE JACQUARD - 75011 PARIS",2.37307150739,48.8645557653,39,28,11
"05015 - MOUFFETARD EPEE DE BOIS","12 RUE DE L'EPEE DE BOIS - 75005 PARIS",2.34998304703,48.8415076374,63,27,36
"07015 - VARENNE","9 BOULEVARD DES INVALIDES - 75007 PARIS",2.31530968318,48.8572901185,47,24,22
"03006 - MAIRIE DU 3EME","10 RUE PERREE - 75003 PARIS",2.36157981521,48.8645308053,34,14,19
"01006 - GRANDE TRUANDERIE","2-4 rue DE LA GRANDE TRUANDERIE 75001 PARIS",2.34973214483,48.8626318042,33,2,31
"13004 - GLACIERE","88 BOULEVARD AUGUSTE BLANQUI (SUR TPC) - 75013 PARIS",2.34542945665,48.8306240751,68,9,59
"12022 - BIZOT","FACE 29 RUE DU SAHEL - 75012 PARIS",2.40438010296,48.8408998138,33,1,31
"19020 - MANIN HAUTPOUL","4-6 RUE GOUBET - 75019 PARIS",2.39020968745,48.8846620656,23,5,17
"34007 - ROSIERS (SAINT OUEN)","43-45 RUE BLANQUI / RUE DES ROSIERS - 93400 SAINT OUEN",2.3373896485,48.9053622514,25,16,9
"19102 - BELLEVILLE RAMPAL","4 RUE DE RAMPAL - 75019 PARIS",2.37985561063,48.8731526239,15,14,1
"41103 - BRIAND (ARCUEIL)","AVENUE ARISTIDE BRIAND (CARREFOUR VACHE NOIRE) - 94110 ARCUEIL",2.32696976462,48.8104231701,25,21,4
"16026 - RANELAGH","91 RUE DU RANELAGH - 75016 PARIS",2.2704086574,48.8554848837,23,21,2
"04021 - BEAUBOURG RAMBUTEAU","49 RUE RAMBUTEAU - 75004 PARIS",2.35258144286,48.8614190722,26,6,20
"15122 - PLACE CHARLES VALLIN","PLACE CHARLES VALLIN - 75015 PARIS",2.30262194094,48.8355247536,14,10,4
"04011 - PLACE DU BATAILLON FRANCAIS DE L'ONU","FACE 18 RUE DE L'HOTEL DE VILLE - 75004 PARIS",2.35709265436,48.8538141453,36,9,20
"22403 - BROSSOLETTE (MALAKOFF)","FACE 35 AVENUE PIERRE BROSSOLETTE - 92240 MALAKOFF",2.31345860825,48.8218356479,24,13,11
"08038 - FRANCOIS 1 ER","22 RUE FRANCOIS 1ER - 75008 PARIS",2.30667557572,48.86688765,28,4,24
"08010 - LIEGE","22 RUE DE LIEGE - 75008 PARIS",2.32642735247,48.8795811656,17,15,1
"04019 - BEAUBOURG SAINT MERRY","4 RUE DU CLOITRE SAINT MERRI - 75004 PARIS",2.35189147062,48.8588289882,32,10,21
"19030 - MOSELLE JAURES","6 PASSAGE DE MELUN - 75019 PARIS",2.376515,48.883777,27,13,14
"15046 - GEORGES BRASSENS","42 RUE DES MORILLONS - 75015 PARIS",2.30232873769,48.8322073452,29,27,1
"31005 - PARIS 2  (MONTREUIL)","127/129 RUE DE PARIS - 93100 MONTREUIL",2.42643449061,48.8562845162,44,40,4
"15044 - J DUPRE","65 RUE DANTZIG - 75015 PARIS",2.29600807609,48.8302693903,33,33,0
"21001 - TRANSVAL (BOULOGNE-BILLANCOURT)","11 RUE DU TRANSVAL - 92100 BOULOGNE-BILLANCOURT",2.23757011021,48.8482998095,26,0,26
"43003 - PARIS 2 (VINCENNES)","104 AVENUE DE PARIS - 94300 VINCENNES",2.42740630276,48.8457199009,26,9,17
"05023 - PLACE JUSSIEU","13 RUE JUSSIEU - 75005 PARIS",2.3557455,48.8456168785,24,20,4
"20001 - PLACE DE LA NATION","1 COURS DE VINCENNES - 75020 PARIS",2.39976238598,48.8483646678,36,34,1
"07016 - TOUR MAUBOURG UNIVERSITE","13 RUE SURCOUF - 75007 PARIS",2.30945355091,48.8612730163,58,39,17
"09011 - FOLIES BERGERES","14 RUE GEOFFROY MARIE - 75009 PARIS",2.34451387634,48.8737819406,20,4,16
"11112 - CHARONNES VALLES","22 RUE JULES VALLES - 75011 PARIS",2.38488615344,48.8543041778,23,9,14
"05105 - GEOFFROY SAINT HILAIRE","8 RUE GEOFFROY SAINT HILAIRE - 75005 PARIS",2.35687734067,48.8390782642,17,0,17
"33010 - HUGO (AUBERVILLIERS)","161 AVENUE VICTOR HUGO - 93300 AUBERVILLIERS",2.3791437423,48.9111048097,32,19,13
"16014 - AVENUE D EYLAU","4 AVENUE D'EYLAU - 75016 PARIS",2.28639449693,48.8635464034,24,15,9
"18004 - ABBESSES","2 RUE DE LA VIEUVILLE - 75018 PARIS",2.33881229703,48.8844823927,13,8,5
"13039 - IVRY POINTE D'IVRY","42 - 44 AVENUE D'IVRY - 75013 PARIS",2.36546962811,48.8232196832,17,14,3
"18033 - MOSKOWA","111 RUE BELLIARD - 75018 PARIS",2.33802345039,48.8966923878,33,27,5
"11022 - LEON BLUM ROQUETTE","142 RUE DE LA ROQUETTE - 75011 PARIS",2.38179770265,48.858001906,16,0,15
"04104 - SEBASTOPOL RAMBUTEAU","FACE 40 BOULEVARD SEBASTOPOL - 75004 PARIS",2.3502209761,48.8618831022,16,0,16
"21109 - GUICHET (CLICHY)","12BIS RUE DU GUICHET - 92110 CLICHY",2.30250316058,48.905137004,18,4,14
"08040 - CHAMPS ELYSEES CHARRON","65 RUE PIERRE CHARRON - 75008 PARIS",2.30431544672,48.8700703391,32,28,4
"09028 - MONCEY BLANCHE","4 RUE MONCEY - 75009 PARIS",2.33107516002,48.8801539859,18,13,5
"14005 - DENFERT ROCHEREAU","2 AVENUE RENE COTY - 75014 PARIS",2.33267222748,48.8331407992,36,34,2
"07008 - SOLFERINO","10 RUE DE VILLERSEXEL - 75007 PARIS",2.32383843779,48.8583186469,16,12,3
"09015 - LAMARTINE","43 RUE LAMARTINE - 75009 PARIS",2.33979989932,48.8766221204,31,6,25
"21112 - DEBUSSY (CLICHY)","31/35 AVENUE CLAUDE DEBUSSY - 92110 CLICHY",2.31176817577,48.9104291257,28,4,24
"17027 - PEREIRE LEVALLOIS","121 BOULEVARD PEREIRE - 75017 PARIS",2.2982864668,48.8852633137,51,1,50
"01018 - RIVOLI TUILERIE","2 RUE D'ALGER - 75001 PARIS",2.32943142195,48.8647936661,21,9,12
"33013 - RECHAUSSIERE (AUBERVILLIERS)","52 RUE LEOPOLD RECHOSSIERE - 93300 AUBERVILLIERS",2.39105149688,48.9145061128,29,11,17
"42001 - JULES (IVRY)","1 RUE JULES VANZUPPE - 94200 IVRY",2.39498124009,48.8203221837,22,6,15
"21017 - REPUBLIQUE 1 (BOULOGNE-BILLANCOURT)","91 BOULEVARD DE LA REPUBLIPQUE - 92100 BOULOGNE-BILLANCOURT",2.24390053208,48.8334736793,56,33,22
"16135 - STADE WILMILLE","ROND POINT DU MARECHAL DELATRE DE TASSIGNY - 75016 PARIS",2.275283,48.872381,29,16,12
"09102 - PLACE D'ESTIENNE D'ORVES","2 RUE DE LONDRES - 75009 PARIS",2.33048422585,48.8767324989,24,8,16
"42705 - CONVENTION (LE KREMLIN BICETRE)","1 RUE DE LA CONVENTION - 94270 LE KREMLIN BICETRE",2.36104116644,48.8128002964,25,14,11
"07011 - ST DOMINIQUE","30 BIS RUE LAS CASES - 75007 PARIS",2.31862422113,48.859068395,22,21,1
"15072 - PLACE FERNAND FOREST","1 RUE LINOIS ANGLE QUAI DE GRENELLE - 75015 PARIS",2.281849,48.849271,32,5,26
"11011 - RICHARD LENOIR","FACE 86 BOULEVARD RICHARD LENOIR - 75011 PARIS",2.37265142827,48.8618048521,25,1,24
"18108 - EVANGILE","61 RUE DE L'EVANGILE - 75018 PARIS",2.36869413984,48.8950903298,21,15,6
"11023 - LEO FROT ROQUETTE","2 RUE SAINT MAUR - 75011 PARIS",2.38355399457,48.8586887741,46,41,5
"09006 - TRUDAINRE ROCHECHOUART","81 RUE DUNKERQUE - 75009 PARIS",2.34626199854,48.8821076344,16,12,3
"20012 - BUZENVAL VIGNOLES","90 RUE BUZENVAL - 75020 PARIS",2.40003874927,48.8539232761,15,13,2
"10005 - CONSERVATOIRE","59 RUE DES PETITES ECURIES - 75010 PARIS",2.3483887575,48.8739721724,17,12,5
"17017 - PONT CARDINET","167 RUE DE ROME - 75017 PARIS",2.31452160564,48.8871404519,32,22,8
"28001 - WALLACE (PUTEAUX)","FACE AU 4 BOULEVARD RICHARD WALLACE - 92800 PUTEAUX",2.24197549369,48.8787068535,30,11,19
"18045 - GANNERON","2 RUE PIERRE GINIER - 75018 PARIS",2.32629368932,48.8866271486,16,15,1
"11033 - BREGUET SABIN","FACE 23 BD RICHARD LENOIR - 75011 PARIS",2.37055463986,48.8568704678,33,0,31
"05006 - SAINT JACQUES SOUFFLOT","174 RUE SAINT JACQUES - 75005 PARIS",2.34312380337,48.8465169206,13,6,6
"12004 - TRAVERSIERE","76 RUE TRAVERSIERE - 75012 PARIS",2.37587011171,48.8507358241,33,1,32
"31013 - CENTENAIRE (MONTREUIL)","8 RUE DU CENTENAIRE - 93100 MONTREUIL",2.42739031072,48.8584596543,45,42,3
"20037 - SAINT FARGEAU","177 AVENUE GAMBETTA - 75020 PARIS",2.40395075221,48.8712659184,24,24,0
"06031 - SAINT MICHEL SARRAZIN","5 RUE PIERRE SARAZIN - 75006 PARIS",2.34219822807,48.8508336544,34,0,34
"10013 - SAINT LOUIS","2 RUE ALIBERT - 75010 PARIS",2.36628044397,48.8711399497,59,3,56
"09038 - SQUARE BERLIOZ","50 BIS RUE DOUAI - 75009 PARIS",2.33084994903,48.8832078412,27,27,0
"01023 - ANDRE MALRAUX MUSEE DU LOUVRE","165 RUE SAINT HONORE - 75001 PARIS",2.33484632755,48.86349702,22,16,4
"17045 - PLACE DES TERNES - 5","5 PLACE DES TERNES - 75017 PARIS",2.29783106471,48.8784103865,43,11,31
"21016 - POINT DU JOUR (BOULOGNE-BILLANCOURT)","118 RUE DU POINT DU JOUR - 92100 BOULOGNE BILLANCOURT",2.24591146701,48.8287531414,25,9,16
"16129 - BOIS DE BOULOGNE / PORTE DE LA MUETTE 1","CHEMIN DE LA CEINTURE DU LAC INTERIEUR / AVENUE DE SAINT CLOUD - 75016 PARIS",2.26174638604,48.862081867,42,16,26
"15055 - VASCO DE GAMA","44 RUE VASCO DE GAMA - 75015 PARIS",2.28369238081,48.8367094965,53,10,43
"34005 - LESENNE (SAINT OUEN)","44 RUE ADRIEN LESENNE - 93400 SAINT OUEN",2.3482749363,48.9025532782,25,5,20
"10041 - CHARTRES (18 ARR.)","FACE 39 BOULEVARD DE LA CHAPELLE - 75010 PARIS",2.35610946588,48.884141194,14,13,1
"13007 - LE BRUN GOBELINS","42 RUE LE BRUN - 75013 PARIS",2.35346813513,48.8350927878,48,1,47
"11006 - LEDRU ROLLIN-BASFROI","169 AVENUE LEDRU ROLLIN - 75011 PARIS",2.37902058776,48.8564337069,37,3,34
"11024 - BOULEVARD VOLTAIRE","82 RUE SEDAINE - 75011 PARIS",2.37887132712,48.8588289084,51,32,19
"19121 - BELLEVILLE PRE SAINT GERVAIS","195 RUE DE BELLEVILLE - 75019 PARIS",2.39296078728,48.8755180686,21,21,0
"09021 - SAINT GEORGES","56 RUE SAINT GEORGES - 75009 PARIS",2.3374468042,48.8778722783,22,11,10
"04020 - BEAUBOURG PLACE MICHELET","FACE 27 RUE QUINCAMPOIX - 75004 PARIS",2.35014833592,48.8600883261,28,18,9
"11008 - FAIDHERBE CHALIGNY","223 RUE DU FAUBOURG SAINT ANTOINE - 75011 PARIS",2.38386933547,48.8503797539,40,8,29
"16027 - JASMIN","79 AV MOZART- 75016 PARIS",2.26848357065,48.8528612487,61,50,9
"09019 - VICTOR MASSE","38 RUE VICTOR MASSE - 75009 PARIS",2.3366810043,48.881149034,18,12,6
"43006 - MINIMES (VINCENNES)","30 AVENUE DES MINIMES - 94300 VINCENNES",2.43079345113,48.8414868563,28,22,6
"11043 - CIRQUE D HIVER","PLACE PASDELOUP - 75011 PARIS",2.36705349045,48.8626503001,21,0,21
"15036 - LAMBERT","102 RUE DE LA CROIX NIVERT - 75015 PARIS",2.2951414131,48.8430763869,47,8,39
"06107 - CHERCHE MIDI","29 RUE DU CHERCHE MIDI - 75006 PARIS",2.32755154921,48.8502410872,23,7,16
"06029 - VAUGIRARD PRINCE","FACE 1 RUE DE VAUGIRARD - 75006 PARIS",2.34104050871,48.8489229582,24,1,23
"12019 - GARE DE REUILLY","58 RUE DE LA GARE DE REUILLY - 75012 PARIS",2.3972499906,48.8425771005,28,24,3
"21113 - PETIT (CLICHY)","2 RUE PETIT - 92110 CLICHY",2.29662648341,48.8993483538,25,8,17
"11044 - RICHARD LENOIR VOLTAIRE NORD","FACE 104 BOULEVARD RICHARD LENOIR - 75011 PARIS",2.37120861796,48.8634319896,23,0,23
"03001 - CHEMIN VERT BEAUMARCHAIS","69 BOULEVARD BEAUMARCHAIS - 75003 PARIS",2.3678326593,48.8580440569,52,0,52
"04107 - BEAUMARCHAIS","27 BOULEVARD BEAUMARCHAIS - 75004 PARIS",2.36842906993,48.8555013577,18,0,18
"21013 - GRENIER (BOULOGNE-BILLANCOURT)","4 AVENUE PIERRE GRENIER - 92100 BOULOGNE-BILLANCOURT",2.24882139109,48.8258469347,21,8,13
"08034 - HAUSSMANN COURCELLES","49 RUE DE BERRI - 75008 PARIS",2.30831406419,48.87481039,34,17,15
"17039 - PLACE SAINT FERDINAND","26 RUE SAINT FERDINAND - 75017 PARIS",2.28851804786,48.8781552979,38,7,31
"05027 - GOBELINS","22 AVENUE DES GOBELINS - 75005 PARIS",2.35143332977,48.8371260386,40,1,39
"15037 - GROULT","202 RUE LECOURBE - 75015 PARIS",2.29546490652,48.8404161884,47,1,45
"21501 - SELLIER (SURESNES)","RUE DE SAINT CLOUD / BOULEVARD HENRI SELLIER - 92150 SURESNES",2.22599848496,48.8675658061,51,18,33
"14115 - CITÉ UNIVERSITAIRE","AVENUE MAURICE D'OCAGNE - 75014 PARIS",2.31657332932,48.8239231685,33,27,6
"17007 - NAVIER","FACE 57 RUE NAVIER - 75017 PARIS",2.32272736705,48.8959141175,34,24,10
"18005 - TARDIEU","8 RUE TARDIEU - 75018 PARIS",2.34187980231,48.8841632665,17,11,6
"14106 - STADE DIDOT","FACE 58 AVENUE MARC SANGNIER - 75014 PARIS",2.31067065347,48.8253258701,21,21,0
"20120 - NOISY LE SEC","1 RUE EVARISTE GALOIS - 75020 PARIS",2.41323987955,48.8733382252,30,30,0
"15013 - LECOURBE VOLONTAIRE","DEV 1 RUE DES VOLONTAIRES - 75015 PARIS",2.30655861557,48.843542735,54,13,41
"16034 - PORTE D'AUTEUIL","76 RUE D'AUTEUIL - 75016 PARIS",2.26065982614,48.8479502078,33,23,10
"08047 - GEORGE V","28 AVENUE GEORGE V - 75008 PARIS",2.30127460932,48.8681659406,32,10,21
"11111 - CHARONNE FROT","31 RUE LEON FROT - 75011 PARIS",2.38721708537,48.8549638003,18,6,11
"08048 - MARCEAU","45 AVENUE MARCEAU - 75008 PARIS",2.2985140488,48.8688517082,20,16,3
"13009 - BLANQUI CORVISART","46 BOULEVARD AUGUSTE BLANQUI - 75013 PARIS",2.35040358782,48.8299837107,25,11,13
"41603 - PASTEUR (SAINT MANDE)","AVENUE PASTEUR/AVENUE DE PARIS - 94160 SAINT MANDE",2.42377059524,48.8457792192,19,18,1
"18040 - CHAPELLE MARX DORMOY","29 BOULEVARD DE LA CHAPELLE - 75018 PARIS",2.36021557266,48.8845700632,23,18,5
"07014 - SAINT FRANCOIS XAVIER","35 BOULEVARD DES INVALIDES - 75007 PARIS",2.31463384063,48.851678229,42,15,27
"12021 - COURTELINE","1 - 3  et 5 avenue Courteline (angle boulevard Soult) - 75012 PARIS",2.41097245167,48.8443731937,50,43,7
"02020 - OPERA CASANOVA","02 RUE DANIEL CASANOVA - 75002 PARIS",2.3332685931,48.8676230781,20,10,10
"42503 - LENINE (GENTILLY)","FACE 71 AVENUE LENINE - 94250 GENTILLY",2.33205479495,48.8131566777,30,30,0
"15034 - COMMERCE","2 RUE LAKANAL - 75015 PARIS",2.29404143328,48.8444259195,55,32,23
"03003 - TURENNE BRETAGNE","4 RUE DES FILLES DU CALVAIRE - 75003 PARIS",2.36495138689,48.862132235,32,2,30
"21104 - SANZILLON (CLICHY)","64 RUE DE MADAME DE SANZILLON - 92110 CLICHY",2.31917665758,48.9036767023,22,6,16
"19115 - PORTE DE LA VILLETTE","1 AVENUE DE LA PORTE DE LA VILLETTE - 75019 PARIS",2.38612000821,48.8984900531,27,1,26
"33102 - JAURES 1 (PRE SAINT GERVAIS)","RUE GABRIEL PERI ANGLE AVENUE JAURES - 93310 LE PRE SAINT GERVAIS",2.40746868939,48.8865269833,18,16,2
"08033 - SAINT PHILIPPE DU ROULE","1 RUE DU CDT RIVIERE - 75008 PARIS",2.30972258893,48.8727876808,27,6,21
"19025 - BOTZARIS","FACE 80 RUE BOTZARIS - 75019 PARIS",2.38896041078,48.8795614522,17,17,0
"02107 - THOREL","11 RUE THOREL - 75002 PARIS",2.34899551805,48.8700006172,16,5,10
"42706 - SALENGRO (KREMLIN BICETRE)","3 RUE ROGER SALENGRO -  94270 LE KREMLIN BICETRE",2.36134550272,48.8146624956,30,22,8
"16010 - BELLES FEUILLES","4 RUE DES BELLES FEUILLES - 75016 PARIS",2.28285990898,48.8658554964,23,22,1
"15031 - THEATRE","60 RUE DU THEATRE - 75015 PARIS",2.28990664646,48.8481703414,53,27,26
"16005 - POINCARE VICTOR HUGO","89 AVENUE RAYMOND POINCARE - 75016 PARIS",2.28507454142,48.8703061244,25,23,1
"16025 - FONTAINE RAYNOUARD","4 RUE JEAN DE LA FONTAINE - 75016 PARIS",2.27558058419,48.8527869441,69,45,23
"11002 - ROQUETTE THIERE","37 RUE DE LA ROQUETTE - 75011 PARIS",2.37342454193,48.8551062954,23,7,16
"10036 - AQUEDUC","80 RUE DE L'AQUEDUC - 75010 PARIS",2.36711064403,48.8838432657,29,29,0
"17031 - PORTE DE CHAMPERET","PLACE DE LA PORTE DE CHAMPERET - 75017 PARIS",2.29078141128,48.8856174163,27,1,26
"12120 - CONSERVATION","ROUTE DE LA CEINTURE DU LAC DAUMESNIL - 75012 PARIS",2.41827234237,48.827725237,50,14,36
"18017 - PECQUEUR","93 RUE CAULAINCOURT - 75018 PARIS",2.33817871443,48.889677905,38,30,8
"09033 - HAVRE CAUMARTIN","FACE 45 RUE CAUMARTIN - 75009 PARIS",2.32831574262,48.8727950199,51,2,48
"09106 - AUBER","3 RUE BOUDREAU - 75009 PARIS",2.329423494,48.8721902514,15,6,9
"11030 - SAINT MAUR OBERKAMPF","80 RUE OBERKAMPF - 75011 PARIS",2.37601991202,48.8653079842,22,9,13
"15113 - FALGUIERE ARSONVAL","2 RUE D'ARSONVAL - 75015 PARIS",2.3131178673,48.8404004037,25,25,0
"23001 - COUTURIER 1 (LEVALLOIS)","2 RUE PAUL VAILLANT COUTURIER - 92300 LEVALLOIS",2.27761872722,48.8936146525,35,18,17
"17046 - MAC MAHON","18 AVENUE MARC MAHON - 75017 PARIS",2.29451253605,48.8775320841,25,0,23
"19029 - SEINE FLANDRE","51 QUAI DE LA SEINE - 75019 PARIS",2.3747195168,48.8867988118,18,8,10
"42014 - CACHIN (IVRY)","PLACE MARCEL CACHIN - 94200 IVRY SUR SEINE",2.39090936807,48.8141405375,51,7,42
"20013 - PLACE DE LA REUNION","106 RUE ALEXANDRE DUMAS - 75020 PARIS",2.39972858969,48.85535514,44,43,1
"17043 - PLACE GENERAL KOENIG","10 RUE BELIDOR - 75017 PARIS",2.28538067947,48.8802336276,38,2,36
"05003 - GAY LUSSAC LE GOFF","9 RUE LE GOFF - 75005 PARIS",2.34132491601,48.8462392817,35,23,12
"17041 - PORTE DE VILLIERS","51 RUE GUERSANT - 75017 PARIS",2.28766737081,48.8828777518,39,1,38
"15010 - CAMBRONNE","FACE 3 BD GARIBALDI - 75015 PARIS",2.3028631005,48.8475753215,59,3,56
"12126 - AVENUE DE GRAVELLE","FACE 71 AVENUE DE GRAVELLE - 75012 PARIS",2.41845500423,48.8244077676,50,25,25
"14006 - SAINT JACQUES TOMBE ISSOIRE","46 BOULEVARD SAINT JACQUES - 75014 PARIS",2.33693339125,48.8331903188,22,21,1
"13048 - TOLBIAC WURTZ","20 RUE WURTZ - 75013 PARIS",2.34430171587,48.8264943283,28,2,26
"20132 - REUNION","4 RUE DE LA REUNION - 75020 PARIS",2.40392806871,48.852566752,25,25,0
"18038 - ROND POINT DE LA CHAPELLE","70 RUE DE LA CHAPELLE - 75018 PARIS",2.3600976191,48.8952199047,49,30,19
"08039 - COLISEE","6 RUE DU COLISEE - 75008 PARIS",2.30766254015,48.8704819386,24,11,13
"20105 - GAUMONT","AVENUE BENOIT FRACHON - 75020 PARIS",2.41554237211,48.8525533927,30,28,1
"05017 - DESCARTES","17 RUE DESCARTES - 75005 PARIS",2.34901473289,48.8466018658,31,27,4
"02017 - CAIRE","40, rue du Caire - 75002 PARIS",2.34925,48.86789,40,8,31
"35011 - D'ORVES (PANTIN)","12 RUE HONORE D'ESTIENNE D'ORVES - 93500 PANTIN",2.40649821383,48.8904846162,18,12,6
"04007 - BOURDON","BOULEVARD BOURDON - 75004 PARIS",2.36824071942,48.8525571174,36,7,29
"10039 - SAMBRE ET MEUSE","37 RUE SAMBRE ET MEUSE - 75010 PARIS",2.373807238,48.8744056662,24,24,0
"12110 - BARON LE ROY TRUFFAUT","57-61 RUE DES PIROGUES DE BERCY - 75012 PARIS",2.38855666622,48.8337086351,55,3,52
"16024 - KENNEDY RANELAGH","4 RUE RANELAGH DEVANT RER - 75016 PARIS",2.28043971999,48.8529331605,22,7,14
"20041 - BELLEVILLE","116 BD DE BELLEVILLE - 75020 PARIS",2.37799433829,48.8711994314,59,56,3
"12035 - MADAGASCAR","4 RUE DE MADAGASCAR - 75012 PARIS",2.39711155265,48.8347058597,33,26,7
"23007 - WILSON (LEVALLOIS)","22 RUE DU PRESIDENT WILSON - 92300 LEVALLOIS-PERRET",2.29216048217,48.8903802654,25,0,25
"19007 - OURCQ-FLANDRES","139 AVENUE DE FLANDRE - 75019 PARIS",2.37919974802,48.8927099921,30,22,8
"15104 - HÔPITAL GEORGES POMPIDOU (PROP 2)","FACE 66 - 70 RUE LEBLANC - 75015 PARIS",2.27573060931,48.8376790033,65,35,30
"31009 - DE GAULLE (MONTREUIL)","13/15 PLACE DU GENERAL DE GAULLE - 93100 MONTREUIL",2.43297479522,48.8688123639,26,20,6
"22008 - DE GAULLE (NEUILLY)","153 BIS AVENUE CHARLES DE GAULLE - 92200 NEUILLY SUR SEINE",2.26513500874,48.8829516254,27,24,3
"17032 - ESPACE CHAMPERRET","12 RUE JEAN OESTREICHER - 75017 PARIS",2.28861234498,48.8865709934,39,2,37
"21309 - CRESSON 2 (ISSY LES MOULINEAUX)","1 BIS AVENUE VICTOR CRESSON - 92130 ISSY LES MOULINEAUX",2.27225445406,48.8237184777,41,25,16
"14025 - JACQUIER","10 RUE JACQUIER - 75014 PARIS",2.31835302141,48.8295704047,36,35,1
"09031 - PROVENCE","69 RUE DE PROVENCE - 75009 PARIS",2.33297651156,48.8742844754,25,3,22
"19036 - HOPITAL ROBERT DEBRE","AV DE LA PTE DU PRES SAINT GERVAIS / ANGLE BD D'ALGERIE - 75019 PARIS",2.40095050201,48.8799304155,33,31,1
"10011 - BOURSE DU TRAVAIL","3 RUE DU CHATEAU D'EAU - 75010 PARIS",2.36226176181,48.8690917487,17,0,17
"13109 - BRILLAT SAVARIN","16 RUE BRILLAT SAVARIN - 75013 PARIS",2.35042203291,48.8222030963,21,0,19
"07005 - BAC","FACE 2 BOULEVARD RASPAIL - 75007 PARIS",2.32568193589,48.855461736,52,43,7
"15126 - RENAN","Avenue ERNEST RENAN / PARC DES EXPOSITIONS - 75015 PARIS",2.28538759483,48.8311001873,50,39,10
"35007 - DELESSERT (PANTIN)","1 RUE  BENJAMIN DELESSERT - 93500 PANTIN",2.41802965969,48.8939437132,21,13,8
"09023 - ITALIENS LAFFITE","1 RUE LAFFITE - 75009 PARIS",2.33720154785,48.8718157374,33,19,14
"06104 - HERSCHEL","7 RUE HERSCHEL - 75006 PARIS",2.33780343097,48.8433642428,37,37,0
"21105 - MORICE (CLICHY)","35-37 RUE MORICE - 92110 CLICHY",2.3133206365,48.9026151938,24,4,20
"04006 - BASSIN DE L'ARSENAL","FACE 1 BOULEVARD BOURBON - 75004 PARIS",2.36593915313,48.8477251257,53,6,47
"08110 - STOCKOLM ROME","6 RUE DE STOCKOLM - 75008 PARIS",2.32232932087,48.8771119188,32,5,25
"21008 - HUGO (BOULOGNE-BILLANCOURT)","74 AVENUE VICTOR HUGO - 92100 BOULOGNE-BILLANCOURT",2.24606415154,48.8379233148,33,21,12
"33001 - EMGP (AUBERVILLIERS)","EMGP AVENUE DE PORTE DE PARIS / PARKING 264 - 93300 AUBERVILLIERS",2.36802561261,48.9031834065,60,20,39
"16011 - VICTOR HUGO RUE DE LA POMPE","118 AVENUE VICTOR HUGO - 75016 PARIS",2.28147752242,48.8681088869,39,37,2
"06032 - RENNES SABOT","7 RUE DU SABOT - 75006 PARIS",2.33164772291,48.8525574217,26,5,21
"15014 - VOLONTAIRES","25 RUE DES VOLONTAIRES - 75015 PARIS",2.30808901725,48.8413205018,34,26,5
"15052 - CONVENTION","183 RUE DE LA CONVENTION - 75015 PARIS",2.29558692602,48.8376768223,48,21,27
"20022 - PORTE DE BAGNOLET","1 RUE GEO CHAVEZ - 75020 PARIS",2.40799,48.86508,33,30,3
"12114 - PORTE DE SAINT MANDE","33 AVENUE COURTELINE - 75012 PARIS",2.41508139483,48.843949064,28,28,0
"02006 - PLACE DES VICTOIRES","2 RUE D'ABOUKIR - 75002 PARIS",2.34192041196,48.8660026326,24,11,13
"16012 - BOULEVARD FLANDRIN","68 BOULEVARD FLANDRIN - 75016 PARIS",2.27435453918,48.8687784918,42,20,22
"15056 - BALARD","13 PLACE BALARD - 75015 PARIS",2.27871769702,48.8365372895,22,12,10
"07013 - PLACE DE BRETEUIL","17 RUE DUROC - 75007 PARIS",2.31268832866,48.8475022584,55,24,31
"10019 - PARADIS","23 RUE PARADIS - 75010 PARIS",2.35218489483,48.8750340562,31,0,31
"42701 - GIDE (LE KREMLIN BICETRE)","FACE 50 AVENUE CHARLES GIDE - 94270 LE KREMELIN BICETRE",2.35385267287,48.8072111233,30,30,0
"22404 - BROSSOLETTE 2 (MALAKOFF)","102 AVENUE PIERRE BROSSOLETTE - 92240 MALAKOFF",2.30748584127,48.8175597536,25,18,7
"31003 - PARIS (MONTREUIL)","237-241 RUE DE PARIS - 93100 MONTREUIL",2.41877242976,48.8549113324,30,30,0
"32601 - PARIS (LES LILAS)","46 RUE DE PARIS - 93260 LES LILAS",2.41189997789,48.8785903488,43,21,0
"18003 - JOSEPH DE MAISTRE LEPIC","2 RUE JOSEPH DE MAISTRE - 75018 PARIS",2.33289782791,48.8864568158,43,42,1
"08027 - MAIRIE DU 8 ÈME","28 RUE DE MADRID - 75008 PARIS",2.31840486278,48.8779840275,14,10,4
"15112 - FALGUIÈRE LEBRUN","19 RUE VIGEE LEBRUN - 75015 PARIS",2.3109360795,48.8387588135,22,21,0
"12111 - DECAEN CANNEBIERE","73 RUE CLAUDE DECAEN - 75012 PARIS",2.3972537822,48.8376141704,27,27,0
"19005 - RIQUET","56 AVENUE DE FLANDRE - 75019 PARIS",2.37375959552,48.8880132814,20,13,7
"21201 - JAURES (MONTROUGE)","6 PLACE JEAN JAURES / RUE MAURICE ARNOUX ET RUE CAMILLE PELLETIN - 92120 MONTROUGE",2.31127954341,48.816290677,22,21,1
"02108 - VIVIENNE","42 RUE VIVIENNE - 75002 PARIS",2.34139499926,48.8712422742,38,24,14
"04016 - LOBAU","3 RUE LOBAU - 75004 PARIS",2.35328134461,48.8562467217,60,7,52
"22009 - DE GAULLE 2 (NEUILLY)","FACE AU 99 AVENUE CHARLES DE GAULLE - 92200 NEUILLY SUR SEINE",2.27186,48.88119,26,24,2
"13015 - WEISS","2 RUE LOUIS WEISS - 75013 PARIS",2.37123198668,48.832570718,41,0,41
"22407 - BARBUSSE (MALAKOFF)","ROND POINT HENRI BARBUSSE - 92240 MALAKOFF",2.28740045741,48.8146796589,25,24,1
"22406 - MOQUET (MALAKOFF)","81 RUE GUY MOQUET - 92240 MALAKOFF",2.29800015658,48.8152498542,23,20,3
"02008 - MAIRIE DU 2EME","11 RUE DE LA BANQUE - 75002 PARIS",2.34056368636,48.8672932628,29,15,14
"06030 - ASSAS-VAUGIRARD","22 RUE D'ASSAS - 75006 PARIS",2.32899674681,48.848468864,35,17,18
"04013 - FRANCS BOURGEOIS","50 RUE VIEILLE DU TEMPLE - 75004 PARIS",2.35863357912,48.858510713,27,0,26
"06016 - DANTON","11 RUE DANTON - 75006 PARIS",2.34144252247,48.8523930093,21,0,21
"01027 - BERGER","49 RUE BERGER - 75001 PARIS",2.34196093796,48.862238717,21,1,20
"17104 - GENERAL KOENIG","2 BOULEVARD AURELLE DE PALADINES - 75017 PARIS",2.28368266167,48.8817256597,22,0,22
"19024 - BUTTES CHAUMONT","28 / 30 RUE BOTZARIS - 75019 PARIS",2.38146466288,48.8779512536,19,19,0
"12043 - DAUMESNIL HEBRARD","108, avenue Daumesnil - 75012 PARIS",2.38474,48.8429,40,6,29
"21108 - VILLENEUVE 2 (CLICHY)","6-8 RUE VILLENEUVE - 92110 CLICHY",2.30622856573,48.9036210122,50,1,49
"05106 - CUJAS","22 RUE CUJAS - 75005 PARIS",2.34183165485,48.8481913486,19,12,7
"08020 - METRO ROME","74 BOULEVARD DES BATIGNOLLES - 75008 PARIS",2.31986005477,48.8821489456,44,25,19
"35014 - DE GAULLE (PANTIN)","139 AVENUE JEAN LOLIVE / MAIL CHARLES DE GAULLE - 93500 PANTIN",2.41271573339,48.8932686647,25,19,6
"28002 - SOLJENITSYNE (PUTEAUX)","BOULEVARD ALEXANDRE SOLJENITSYNE - 92800 PUTEAUX",2.24772065,48.884478,60,2,58
"20027 - PORTE DE MENILMONTANT","1 rue Vidal de la Blache / Angle 78 boulevard Mortier - 75020 PARIS",2.40932246879,48.8691543609,15,15,0
"18019 - MONTCALM","2 RUE MONTCALM - 75018 PARIS",2.33544742769,48.8918779571,49,47,2
"12024 - GARE DE BERCY","GARE DE BERCY - ANGLE RUE CORBINEAU - 75012 PARIS",2.38241,48.83976,35,27,7
"21015 - NATIONALE (BOULOGNE-BILLANCOURT)","39 RUE NATIONALE - 92100 BOULOGNE-BILLANCOURT",2.24183519132,48.8276004241,23,11,12
"42015 - JEAN FERRAT (IVRY)","PLACE JEAN FERRAT - 94200 IVRY",2.37427,48.8185,25,19,6
"13026 - PLACE HENOCQUE VERSION 2","21 RUE DU DR LERAY ET LANDOUZY - 75013 PARIS",2.35433694417,48.8233161722,34,8,26
"19028 - PLACE DES FETES","17 RUE DES FETES - 75019 PARIS",2.39228462979,48.8764683397,20,20,0
"10029 - PLACE DE ROUBAIX","39 RUE DE DUNKERQUE - 75010 PARIS",2.3514643332,48.8807266858,23,23,0
"09004 - ROCHECHOUART GERANDO","19 RUE GUERANDO - 75009 PARIS",2.34631937163,48.8829110895,21,15,6
"22011 - MONTROSIER (NEUILLY)","7 RUE MONTROSIER - 92200 NEUILLY",2.27853571712,48.8794413696,25,5,20
"18027 - DAMREMONT ORDENER","102 RUE DAMREMONT - 75018 PARIS",2.33626652391,48.893400393,28,20,8
"11017 - ALEXANDRE DUMAS","FACE 77 BOULEVARD DE CHARONNE - 75011 PARIS",2.39609349532,48.8541760404,46,43,3
"20133 - RASSELINS","2 RUE DES RASSELINS - 75020 PARIS",2.40961536278,48.8535286859,27,23,4
"00905 - CONCORDE/BERGES DE SEINE (STATION MOBILE)","QUAI D'ORSAY - CONCORDE - 75007 PARIS",2.31669,48.86314,20,15,4
"12006 - GARE DE LYON VAN GOGH","15 RUE VAN GOGH - 75012 PARIS",2.37169167798,48.8441924079,60,10,50
"14016 - REILLE MONTSOURIS","61 AVENUE RENE COTY - 75014 PARIS",2.3359996773,48.8247671026,53,53,0
"17047 - COURCELLES - DEMOURES","172 RUE DE COURCELLES - 75017 PARIS",2.29858466343,48.8837697333,26,0,26
"04014 - ARCHIVES BLANCS MANTEAUX","29 RUE DES BLANCS MANTEAUX - 75004 PARIS",2.35592748654,48.8594027196,30,8,22
"18030 - SIMPLON","1 RUE JOSEPH DIJON - 75018 PARIS",2.3475179666,48.8937342775,38,32,5
"21106 - MORICE 2 (CLICHY)","2-4 RUE MORICE - 92110 CLICHY",2.30856953503,48.9006603494,25,0,25
"43001 - PARIS 1 (VINCENNES)","168 AVENUE DE PARIS - 94300 VINCENNES",2.42024734047,48.8463380539,22,12,10
"01007 - ETIENNE MARCEL","2 RUE DE TURBIGO - 75001 PARIS",2.34770202114,48.8635670471,20,0,20
"03013 - RUE DE SEVIGNE","36 RUE DE SEVIGNE - 75003 PARIS",2.36289742023,48.8569541481,14,12,2
"09029 - TRINITE","62 RUE SAINT LAZARE - 75009 PARIS",2.33276238001,48.8768593273,39,13,26
"08002 - GARE SAINT LAZARE - COUR DU HAVRE","Cour du Havre - Face au 2, rue d'Amsterdam - 75008 PARIS",2.32668,48.87572,46,0,38
"14027 - ALESIA GERGOVIE","FACE 83 RUE DE GERGOVIE - 75014 PARIS",2.31888210121,48.8308871746,36,35,1
"18111 - FELIZ ZIEM","2 RUE FELIX ZIEM - 75018 PARIS",2.3333936588,48.8894963049,24,15,8
"19118 - BOLIVAR BURNOUF","82 AVENUE SIMON BOLIVAR - 75019 PARIS",2.37427650924,48.8771241777,22,19,3
"14036 - BOULARD DAGUERRE","14 RUE BOULARD - 75014 PARIS",2.32930394655,48.834390797,43,42,1
"17033 - CARNOT","8 AVENUE CARNOT - 75017 PARIS",2.29373210017,48.8755384211,32,22,10
"14001 - EDGAR QUINET","13 BOULEVARD EDGAR QUINET - 75014 PARIS",2.32444878952,48.8411562165,27,3,21
"03009 - TEMPLE 113","76 RUE DU TEMPLE - 75003 PARIS",2.35660934144,48.8615811577,18,1,16
"19106 - GARE EMGP","35, rue de la Gare - 75019 PARIS",2.37267,48.90162,30,11,17
"08029 - PLACE DU CANADA","1 AVENUE FRANKLIN ROOSEVELT - 75008 PARIS",2.31019378796,48.8653462694,36,6,30
"23010 - VOLTAIRE (LEVALLOIS)","47 RUE VOLTAIRE - 92300 LEVALLOIS-PERRET",2.28420499011,48.891962329,25,7,18
"09017 - TRUDAINE MARTYRS","01 RUE LALLIER - 75009 PARIS",2.34077441212,48.881032149,29,19,10
"19027 - SERRURIER","FACE 109 BOULEVARD SERURIER - 75019 PARIS",2.39789629061,48.8806060536,18,18,0
"04018 - RIVOLI SEBASTOPOL","1 RUE SAINT BON - 75004 PARIS",2.35021728098,48.8579996433,19,0,19
"15011 - THEBAUD RUE DE CAMBRONNE","32 RUE CAMBRONNE - 75015 PARIS",2.30175308699,48.8458314196,62,36,26
"08052 - WASHINGTON","2 RUE BALZAC - 75008 PARIS",2.29997293264,48.872882991,30,27,2
"01003 - RIVOLI SAINT DENIS","7 RUE SAINT DENIS - 75001 PARIS",2.34762008768,48.8591502873,50,13,37
"01010 - PONT NEUF","10 RUE BOUCHER - 75001 PARIS",2.34436612845,48.8594623892,25,14,11
"13120 - VITRY DESAULT","RUE PIERRE ET JOSEPH DESAULT - 75013 PARIS",2.37871860661,48.8211387514,19,8,10
"15120 - AVIA","26 RUE DU COLONEL PIERRE AVIA - 75015 PARIS",2.27534258685,48.8296843301,29,0,29
"16103 - TRAKTIR","3 RUE TRAKTIR - 75016 PARIS",2.29150817943,48.872799156,21,3,18
"04105 - MORLAND","17 BOULEVARD DU MORLAND - 75004 PARIS",2.36323986872,48.8499600353,36,23,13
"16018 - FLANDRIN","2 BOULEVARD FLANDRIN - 75016 PARIS",2.27244864765,48.8644114095,17,16,0
"18107 - CHARTRES","22-24 RUE DE CHARTRES - 75018 PARIS",2.35358041023,48.884706864,33,11,22
"20107 - STADE MARYSE HILSZ","26 RUE MARYSE HILSZ - 75020 PARIS",2.41273364163,48.8512852762,23,9,14
"09026 - BRUYERE PIGALLE","28 RUE J.B.PIGALLE - 75009 PARIS",2.33370917334,48.8793982645,17,14,3
"17021 - WAGRAM (17EME ARR.)","RUE JOUFFROY D'ABBANS - 75017 PARIS",2.30549744426,48.8842894403,40,3,37
"19014 - LORRAINE","28 RUE DE LORRAINE - 75019 PARIS",2.38246120056,48.8863350826,18,15,2
"00906 - GARE DE L'EST","GARDE DE L'EST-PARVIS GARE DE L'EST - 75010 PARIS",2.35863006454,48.8764198136,20,1,19
"10031 - AQUEDUC","48 RUE LOUIS BLANC - 75010 PARIS",2.36362521455,48.88199721,39,35,4
"16107 - GODARD","2 RUE BENJAMIN GODARD - 75016 PARIS",2.27572563573,48.865983241,33,15,15
"05107 - PONTOISE","1 RUE DE PONTOISE - 75005 PARIS",2.35245427549,48.8504580092,23,3,19
"12002 - LACUEE","17 RUE LACUEE - 75012 PARIS",2.37050342387,48.8492158626,16,1,15
"21005 - MORIZET (BOULOGNE-BILLANCOURT)","20 AVENUE ANDRE MORIZET - 92100 BOULOGNE-BILLANCOURT",2.2416882471,48.8349539797,25,14,11
"10113 - PARMENTIER LOUVEL-TESSIER","151 AVENUE PARMENTIER - 75010 PARIS",2.36989638367,48.8713798743,43,41,2
"12123 - CHATEAU DE VINCENNES","COURS DES MARECHAUX - 94300 VINCENNES",2.43920953771,48.8442319326,51,4,34
"19039 - PAILLERON","6 RUE EDOUARD PAILLERON - 75019 PARIS",2.37483435116,48.8797752489,24,22,2
"18012 - DOUDEAUVILLE STEPHENSON","51 RUE STEPHENSON - 75018 PARIS",2.35596672142,48.8888648961,36,27,9
"11101 - SQUARE NORDLING","15 RUE CHARLES DELESCLUZE - 75011 PARIS",2.38058363232,48.8525290004,49,28,20
"17019 - MALESHERBES","20 RUE DE PHALSBOURG - 75017 PARIS",2.30902648734,48.8826088164,20,17,3
"19016 - OURCQ","78 RUE D'HAUTPOUL - 75019 PARIS",2.38654145444,48.8863936794,30,6,22
"11021 - PHILIPPE AUGUSTE (20EME ARR.)","212 BOULEVARD CHARONNE - 75011 PARIS",2.39039812239,48.8584450543,23,8,15
"20021 - PRAIRIE L INDRE","2 RUE DE L'INDRE - 75020 PARIS",2.403351311,48.8627264627,36,34,2
"20106 - MAIRIE DU 20ÈME","44-46 AVENUE GAMBETTA - 75020 PARIS",2.39894644808,48.865352242,27,26,1
"09025 - TAITBOUT CHÂTEAUDUN","77 RUE TAITBOUT - 75009 PARIS",2.33535667793,48.8763839694,38,22,16
"13024 - BOBILLOT TOLBIAC","81 RUE BOBILLOT - 75013 PARIS",2.35020508497,48.8255258619,33,27,6
"11039 - JULES FERRY REPUBLIQUE","FACE 121 BOULEVARD RICHARD LENOIR - 75011 PARIS",2.36933707497,48.8658042767,36,6,30
"14032 - MOUTON DUVERNET - MAIRIE DU 14EME","26 RUE MOUTON DUVERNET - 75014 PARIS",2.32540116669,48.8325012787,31,31,0
"19021 - MAIRIE DU 19 EME","4 RUE ARMAND CARREL - 75019 PARIS",2.38122061029,48.8825914667,25,25,0
"16111 - HELIE","4 - 6 rue Faustin Helie - 75016 PARIS",2.27652208903,48.8594030819,32,31,1
"44102 - VERDUN (SAINT MAURICE)","14 avenue de Verdun - 94410 SAINT MAURICE",2.42150447606,48.8221758049,25,10,15
"05033 - SAINT SEVERIN","42 RUE SAINT SEVERIN - 75005 PARIS",2.34413776325,48.8527056477,30,12,18
"12108 - BERCY","FACE AU N°16 BOULEVARD DE BERCY - 75012 PARIS",2.37862,48.84002,66,29,36
"16116 - GEORGES SAND","23 rue Georges Sand - 75016 PARIS",2.26825738753,48.8498691876,29,5,24
"00904 - PLACE JOFFRE / ECOLE MILITAIRE","ECOLE MILITAIRE-AVENUE DE LA MOTTE PICQUET - 75007 PARIS",2.30196122721,48.8521362052,30,6,24
"10038 - COLONEL FABIEN","69 RUE DE LA GRANGE AUX BELLES - 75010 PARIS",2.36979124508,48.8775200285,28,20,6
"21205 - JAURES 2 (MONTROUGE)","AVENUE JEAN JAURES / RUE ROGER SALENGERO - 92120 MONTROUGE",2.30694360566,48.8138629636,26,26,0
"18105 - BELIARD POISSONNIERS","157 BIS-159 RUE DES POISSONNIERS - 75018 PARIS",2.35252665936,48.8974067879,32,21,8
"12037 - DAUMESNIL","53 BOULEVARD DE REUILLY - 75012 PARIS",2.39721237629,48.8394854027,40,24,15
"17003 - JACQUES KELLNER","4-6 RUE JACQUES KELLNER - 75017 PARIS",2.32789740916,48.8958094858,45,39,6
"15043 - BRANCION","122 RUE BRANCION - 75015 PARIS",2.30141743604,48.8290542165,11,11,0
"15005 - PLACE TREFOUEL","FACE 24 BOULEVARD PASTEUR - 75015 PARIS",2.31272739021,48.8426508046,42,40,2
"13052 - TOLBIAC LERREDE","2 RUE LEREDDE - 75013 PARIS",2.37433200086,48.8289747443,43,19,23
"22003 - BEFFROY (NEUILLY)","3 RUE BEFFROY - 92200 NEUILLY",2.26126351803,48.8867049831,25,22,3
"07002 - VANEAU","86 RUE VANEAU - 75007 PARIS",2.32041739312,48.8485776076,35,13,22
"14015 - CITE UNIVERSITAIRE","FACE 15 BOULEVARD JOURDAN - 75014 PARIS",2.33992642819,48.8201501078,19,17,2
"19113 - PRE ST GERVAIS","27 RUE DU PRE SAINT GERVAIS - 75019 PARIS",2.39598555362,48.8779234119,27,27,0
"42016 - CURIE (IVRY)","1 BIS RUE PIERRE ET MARIE CURIE - 94200 IVRY",2.37694379547,48.8158473928,26,26,0
"09111 - LA FAYETTE PROVENCE","28 RUE DE LA VICTOIRE - 75009 PARIS",2.33811850514,48.8751437349,18,13,5
"11018 - SAINT MAUR AVENUE DE LA REPUBLIQUE","87 RUE DE SAINT MAUR - 75011 PARIS",2.37825584151,48.8642116747,36,29,7
"17010 - JONCQUIERE","90 RUE DE LA JONQUIERE - 75017 PARIS",2.31888535397,48.8947686247,35,3,32
"17038 - ARGENTINE","42 AVENUE DE LA GRANDE ARMEE - 75017 PARIS",2.28824740509,48.8761743895,56,53,3
"12040 - PORTE DE CHARENTON","FACE 2 AV. DE LA PORTE DE CHARENTON - 75012 PARIS",2.39874566495,48.8315881252,67,67,0
"14114 - PLACE DE CATALOGNE","4 RUE ALAIN - 75014 PARIS",2.31748293064,48.8372933094,43,42,1
"32001 - PROUDHON (SAINT DENIS)","AVENUE PRESIDENT WILSON / RUE PROUDHON - 93200 SAINT DENIS",2.35844205395,48.9064693732,33,21,12
"13113 - CHOISY VISTULE","2 RUE DE LA VISCULE - 75013 PARIS",2.36157153416,48.8236339764,33,4,29
"21019 - VAILLANT (BOULOGNE-BILLANCOURT)","71 AVENUE EDOUARD VAILLANT - 92100 BOULOGNE-BILLANCOURT",2.24786255061,48.8348608106,28,14,14
"13019 - AURIOL QUAI DE LA GARE","20 RUE FERNAND BRAUDEL - 75013 PARIS",2.37237538906,48.8363622524,36,4,30
"06014 - PONT DE LODI DAUPHINE","7 RUE DU PONT DE LODI - 75006 PARIS",2.33994730757,48.8552968986,26,2,24
"12112 - CHARENTON JARDINIER","311-313 RUE DE CHARENTON - 75012 PARIS",2.39469266411,48.8338217729,31,25,5
"42004 - COUTURIER (IVRY)","30 RUE PAUL VAILLANT COUTURIER -  94200 IVRY SUR SEINE",2.39671917244,48.8190127185,27,11,16
"15035 - PLACE ETIENNE PERNET","2 RUE DES FRERES MORANE - 75015 PARIS",2.29217354144,48.8424587555,42,20,21
"32004 - BAILLY (SAINT DENIS)","AVENUE DU PRESIDENT WILSON/ RUE DE BAILLY - 93200 SAINT DENIS",2.35750068369,48.9151986424,43,13,30
"08050 - BOETIE PONTHIEU","116 RUE DE LA BOETIE - 75008 PARIS",2.30748756442,48.8715127415,45,5,37
"31001 - LAGNY (MONTREUIL)","96 RUE DE LAGNY - 93100 MONTREUIL",2.42142994001,48.8492303009,27,27,0
"20108 - HOSPICE DEBROUSSE","142 RUE DE BAGNOLET - 75020 PARIS",2.40568863716,48.8615729588,22,21,1
"12127 - TREMBLAY - INSEP","11, avenue du Temblay - 75012 PARIS",2.45482,48.83397,36,32,4
"10115 - DODU","1 - 3 RUE DES ECLUSES SAINT MARTIN - 75010 PARIS",2.36808449794,48.8761373391,27,19,8
"03008 - PERLE","22 RUE DE LA PERLE - 75003 PARIS",2.36105048709,48.8598466832,18,2,15
"42502 - RASPAIL 2 (GENTILLY)","FACE AU 79 AVENUE RASPAIL- 94250 GENTILLY",2.34679437435,48.8131276479,30,10,20
"06025 - RENNES - ASSAS","16 RUE D'ASSAS - 75006 PARIS",2.32851454623,48.8492084999,32,12,20
"17111 - LEMERCIER","109 RUE LEMERCIER - 75017 PARIS",2.3175909299,48.8900204961,23,6,16
"02013 - RICHELIEU DROUOT","20 RUE FAVART - 75002 PARIS",2.33829010585,48.8714463539,17,5,12
"19040 - TELEGRAPHE","265 RUE DE BELLEVILLE - 75019 PARIS",2.39946145198,48.8756361807,19,18,0
"15016 - DUTOT","59 RUE DUTOT - 75015 PARIS",2.30853184382,48.8383124746,41,36,5
"16112 - CHERNOVITZ","1-3 RUE CHERNOVITZ - 75016 PARIS",2.28217321814,48.8569864146,36,20,15
"03010 - BEAUBOURG","46 RUE BEAUBOURG - 75003 PARIS",2.35423678142,48.8624649804,18,0,18
"11105 - REPUBLIQUE PARMENTIER","82 AVENUE PARMENTIER - 75011 PARIS",2.37519519672,48.8645416268,50,42,8
"21011 - SILLY (BOULOGNE BILLANCOURT)","153 RUE DE SILLY - 92100 BOULOGNE BILLANCOURT",2.23401640135,48.8322746602,23,0,23
"09032 - MATHURINS","12 RUE DES MATHURINS - 75009 PARIS",2.3294656117,48.8729712519,40,15,25
"33011 - FAURE (AUBERVILLIERS)","FACE 172-174 BOULEVARD FELIX FAURE - 93300 AUBERVILLIERS",2.37528131997,48.911393689,28,18,7
"13017 - NATIONALE","167 RUE NATIONALE - 75013 PARIS",2.36235441039,48.832527084,33,21,11
"05007 - ECOLES CARMES","39 RUE DES ECOLES - 75005 PARIS",2.34720132952,48.8489190079,37,6,29
"12034 - PIROGUES DE BERCY","20 RUE DES PIROGUES DE BERCY - 75012 PARIS",2.38637027857,48.8323083894,48,1,47
"14024 - RAYMOND LOSSERAND","RUE VERCINGETORIX - 75014 PARIS",2.30567210646,48.8279894874,24,22,2
"06007 - VAVIN","18 RUE BREA - 75006 PARIS",2.32979422176,48.8427384783,23,16,7
"11028 - BLUETS REPUBLIQUE","FACE 20 RUE GUILLAUME BERTRAND - 75011 PARIS",2.38090637715,48.8638251743,36,32,4
"13011 - COMPO FORMIO","112 BD DE L'HOPITAL - 75013 PARIS",2.35821834503,48.835405713,15,6,9
"14008 - MOUTON DUVERNET","5 RUE MOUTON DUVERNET - 75014 PARIS",2.32931936322,48.8315066757,38,26,11
"12016 - PICPUS","43 AVENUE DE SAINT MANDE - 75012 PARIS",2.40140070767,48.8451282938,34,31,3
"20048 - BAGNOLET","110 RUE DE BAGNOLET - 75020 PARIS",2.40344426132,48.8597776445,28,27,1
"14026 - PLANTES MOULIN VERT","23 RUE DES PLANTES - 75014 PARIS",2.32331344598,48.8301471958,45,44,0
"12119 - DOM PÉRIGNON GRAVELLE","ROUTE DOM PERIGNON - 75012 PARIS",2.4098309418,48.8255844311,50,35,15
"02102 - SAINT MARC","8 RUE SAINT MARC - 75002 PARIS",2.34187856663,48.870314764,37,22,15
"16124 - SÈVRES NEUILLY","Route de Sèvres à Neuilly - 75016 PARIS",2.249216988,48.8750959379,66,35,31
"16021 - RUE FRANCOIS PONSARD","1 RUE FRANCOIS PONSARD - 75016 PARIS",2.27430852414,48.8584276966,23,23,0
"20503 - COURS DE VINCENNES PYRÉNÉES","1 RUE DES PYRENEES - 75020 PARIS",2.40590731702,48.847724969,21,18,3
"01011 - RIVOLI MAIRIE DU 1ER","36 RUE DE L'ARBRE SEC - 75001 PARIS",2.34230264573,48.8602470954,20,13,7
"17006 - GUY MOCQUET DAVY","34 RUE GUY MOCQUET - 75017 PARIS",2.32329134121,48.8920640862,22,16,5
"07006 - QUAI VOLTAIRE","QUAI VOLTAIRE - 75007 PARIS",2.33141820471,48.8589429862,32,1,30
"15111 - SERRES","48 RUE OLIVIER DE SERRES - 75015 PARIS",2.29578948032,48.8346588628,24,18,6
"20011 - PYRÉNÉES-DAGORNO","103 RUE DES PYRENNEES - 75020 PARIS",2.40516852064,48.855501354,21,18,3
"14113 - ARAGO 2","36 RUE DE LA SANTE - 75014 PARIS",2.34157863456,48.835128865,37,9,28
"22005 - DE GAULLE 3 (NEUILLY)","195 AVENUE CHARLES DE GAULLE - 92200 NEUILLY",2.2609917721,48.8842989294,22,20,2
"13040 - PORTE DE CHOISY","111 BOULEVARD MASSENA - 75013 PARIS",2.36507858639,48.8199419657,44,43,0
"15118 - PLACE BIENVENUE","11 RUE DE L'ARRIVEE - 75015 PARIS",2.32225737728,48.8431988281,22,8,13
"08031 - ROND POINT DES CHAMPS ELYSEES","2 RUE JEAN MERMOZ - 75008 PARIS",2.31071465537,48.869708848,33,6,27
"13018 - AURIOL CHEVALERET","1 RUE BRUANT - 75013 PARIS",2.36682649963,48.8348484529,25,21,4
"09020 - TOUDOUZE CLAUZEL","FACE 27 RUE CLAUZEL - 75009 PARIS",2.33719063927,48.8795052656,21,10,10
"15049 - PORTE DE VERSAILLES","2 AVENUE ERNEST RENAN - 75015 PARIS",2.28712226198,48.8321794443,23,9,14
"11032 - METALLOS","81 BIS RUE JP TIMBAUD - 75011 PARIS",2.37788551568,48.8679379631,48,39,7
"07004 - RASPAIL VARENNE","FACE 28 BOULEVARD RASPAIL - 75007 PARIS",2.32631980638,48.8532616686,36,28,8
"05029 - PORT ROYAL","FACE 41 AVENUE GEORGES BERNANOS - 75005 PARIS",2.33729688974,48.8401089567,30,29,1
"44101 - PLACE MONGOLFIER (SAINT MAURICE)","PLACE MONTGOLFIER - 94410 SAINT MAURICE",2.45923941481,48.8150500062,48,5,43
"15107 -  PALAIS DES SPORTS","42 BOULEVARD VICTOR - 75015 PARIS",2.28548042092,48.8335736182,43,13,30
"33104 - JOINEAU (PRE SAINT GERVAIS)","RUE ANDRE JOINEAU / PLACE ANATOLE FRANCE - 93310 LE PRE SAINT GERVAIS",2.40324031837,48.8836202338,55,15,15
"08057 - HOCHE","62 AVENUE HOCHE - 75008 PARIS",2.2974385772,48.8749447581,33,12,19
"19125 - LEDIT DE NANTES","PLACE LEDIT DE NANTES - 75019 PARIS",2.37850015614,48.8887900268,30,25,4
"01116 - OPÉRA PYRAMIDES","4 RUE DE VENTADOUR - 75001 PARIS",2.33438844825,48.8668106533,27,14,13
"15033 - VIOLET","5 PLACE VIOLET - 75015 PARIS",2.29054156015,48.8447903903,48,40,8
"19001 - OURCQ CRIMEE","243 RUE DE CRIMEE - 75019 PARIS",2.37294608847,48.8941041403,56,44,12
"20006 - PYRÉNÉES - PLAINE","33 RUE DES PYRENEES - 75020 PARIS",2.40629610782,48.8502852806,12,7,5
"11004 - CHARONNE SAINT ANTOINE","3 RUE DE CHARONNE - 75011 PARIS",2.37402723561,48.85225529,32,2,29
"13046 - OUDINE PATAY","10 RUE EUGENE OUDINE - 75013 PARIS",2.37504430009,48.8257129035,44,28,16
"13111 - CIMETIERE DE GENTILLY","RUE DE LA POTERNE DES PEUPLIERS - 75013 PARIS",2.35326018374,48.8185744158,54,8,46
"12041 - BOIS DE VINCENNES","AVENUE DAUMESNIL - 75012 PARIS",2.41346357649,48.8336548528,58,24,34
"19031 - MANIN CRIMEE","8 RUE MANIN - 75019 PARIS",2.38634884002,48.8830298393,23,23,0
"12113 - CARDINAL LAVIGERIE","4 PLACE DU CARDINAL LAVIGERIE - 75012 PARIS",2.4026367494,48.8329341937,46,15,31
"18113 - LEPIC","70 - 72 RUE LEPIC - 75018 PARIS",2.33432733642,48.887573071,22,15,6
"28003 - JAURES (PUTEAUX)","152 RUE JEAN JAURES - 92800 PUTEAUX",2.2373624463,48.8804708722,35,20,15
"09034 - GODOT DE MAUROY","2 RUE GODOT DE MAUROY - 75009 PARIS",2.32659965711,48.8699566816,22,6,16
"17023 - AVENUE DE LA PORTE D'ASNIÈRES","22 AVENUE DE LA PORTE D'ASNIERES - 75017 PARIS",2.30345740869,48.8905862156,36,21,14
"01102 - FRANCAISE","6 RUE FRANCAISE - 75001 PARIS",2.34759791272,48.8640650469,18,0,18
"16017 - RUE DE SIAM","1 BIS RUE DE SIAM - 75016 PARIS",2.27534656856,48.861720329,16,13,3
"17016 - BROCHANT","3 RUE BROCHANT - 75017 PARIS",2.31686114315,48.8881869858,21,2,19
"12028 - VIVALDI","42 ALLEE VIVALDI - 75012 PARIS",2.38972897947,48.8419236633,27,16,11
"05008 - ST GERMAIN-DANTE","9 RUE DE DANTE - 75005 PARIS",2.34607682591,48.8509772298,20,1,19
"23004 - COUTURIER 2 (LEVALLOIS)","109 RUE  PAUL VAILLANT COUTURIER - 92300 LEVALLOIS",2.29384801797,48.8981970226,35,3,32
"15008 - SEVRES LECOURBE","FACE 4 BOULEVARD PASTEUR - 75015 PARIS",2.31108550609,48.8448380192,62,50,12
"07022 - PONT DE L'ALMA","3 AVENUE BOSQUET - 75007 PARIS",2.30225034418,48.8616404996,69,40,20
"35012 - CANDALE (PANTIN)","FACE AU 12 RUE CANDALE - 93500 PANTIN",2.41430751511,48.8894858402,25,8,17
"01009 - PONT NEUF - 14","14 RUE DU PONT NEUF - 75001 PARIS",2.34433354527,48.8602451945,24,7,17
"13034 - EDISON","54 AVENUE EDISON - 75013 PARIS",2.36106902409,48.8290266697,18,6,12
"43009 - MURS DU PARC (VINCENNES)","AVENUE DES MURS DU PARC - 94300 VINCENNES",2.4522373966,48.8469612602,50,36,14
"14126 - VAILLANT COUTURIER","155 AVENUE PAUL VAILLANT COUTURIER - 75014 PARIS",2.33260968792,48.8169809813,42,38,4
"20043 - CHARONNE AVRON","48 BOULEVARD DE CHARONNE - 75011 PARIS",2.39840304704,48.8516026652,27,24,3
"15067 - DESAIX","23 RUE DESAIX - 75015 PARIS",2.29307702986,48.8528046049,12,0,12
"01002 - PLACE DU CHATELET","14 AVENUE VICTORIA - 75001 PARIS",2.34701005811,48.857940093,21,3,18
"17105 - PALADINES","18 BOULEVARD D'AURELLE DE PALADINES - 75017 PARIS",2.28201558963,48.8834980819,41,1,39
"14037 - JEAN MOULIN","56 AVENUE JEAN MOULIN - 75014 PARIS",2.32184998734,48.825709817,33,28,5
"10034 - CHAPELLE LOUIS BLANC","68 RUE LOUIS BLANC - 75010 PARIS",2.36005308899,48.8838493184,20,14,6
"20045 - LOUIS GANNE","3-5 RUE LOUIS GANNE - 75020 PARIS",2.40967010022,48.8634696412,30,30,0
"34011 - DHALENNE (SAINT OUEN)","FACE AU 61 RUE ALBERT DHALENNE - 93400 SAINT OUEN",2.33208283587,48.9141883124,23,9,13
"13122 - PARC DE CHOISY","FACE 153 AVENUE DE CHOISY - 75013 PARIS",2.3585135329,48.8281562516,25,24,0
"08113 - PLACE ST AUGUSTIN","5 PLACE SAINT AUGUSTIN - 75008 PARIS",2.31939514438,48.8749231098,22,6,9
"21012 - LECLERC (BOULOGNE-BILLANCOURT)","745 AVENUE DU GENERAL LECLERC - 92100 BOULOGNE-BILLANCOURT",2.23449077993,48.8305862962,50,6,44
"41301 - CLEMANCEAU (NOGENT)","2 AVENUE GEORGES CLEMENCEAU - 94130 NOGENT",2.47037545127,48.836125843,50,23,27
"18037 - AMIRAUX","48 RUE BOINOD - 75018 PARIS",2.35229546678,48.8945417158,20,13,6
"15020 - MAIRIE DU 15EME","4 RUE LEON SECHE - 75015 PARIS",2.29854929401,48.8417096402,32,18,14
"19013 - LAUMIERE","8 & 1 RUE PETIT - 75019 PARIS",2.38012665025,48.8845807407,33,24,7
"15109 - CEVENNES","65 - 67 RUE DES CEVENNES - 75015 PARIS",2.28107075522,48.8424414522,29,17,12
"42203 - ELUARD (CHARENTON)","FACE AU 7 RUE PAUL ELUARD - 94220 CHARENTON",2.40840547216,48.820403894,32,11,21
"42202 - RONSARD (CHARENTON)","1 RUE  KENNEDY / ALLEE RONSARD - 94220 CHARENTON",2.40565920321,48.8227360121,23,16,7
"11016 - PHILIPPE AUGUSTE","5 RUE DU PASSAGE PHILIPPE AUGUSTE - 75011 PARIS",2.39325537631,48.8518182,46,44,2
"04001 - NOTRE DAME","10 RUE D'ARCOLE - 75004 PARIS",2.34938004529,48.8539841444,32,0,32
"21706 - BLEUZEN (VANVES)","74 RUE JEAN BLEUZEN - 92170 VANVES",2.29650634355,48.8233032341,48,46,2
"32604 - KOCK (LES LILAS)","FACE 3 AVENUE PAUL DE KOCK - 93260 LES LILAS",2.42020915533,48.8812154273,28,28,0
"15023 - LA MOTTE PIQUET","146 BOULEVARD GRENELLE - 75015 PARIS",2.29924407695,48.8486563159,34,16,18
"35005 - GENERAL LECLERC (PANTIN)","QUAI DE L'AISNE/AVENUE DU GENERAL LECLERC 93500 PANTIN",2.40057189443,48.8957139498,27,1,26
"13102 - LA PITIE-SALPETRIERE","47-83 BOULEVARD DE L'HOPITAL (Allée de la grille) - 75013 PARIS",2.36506,48.83742,50,40,10
"13013 - SAINT MARCEL","3 BD SAINT MARCEL - 75013 PARIS",2.36098941702,48.8395044246,21,0,21
"42206 - PARIS 2 (CHARENTON)","111 RUE DE PARIS - 94220 CHARENTON",2.4100135404,48.8237840897,23,21,2
"12009 - DIDEROT","FACE 124 RUE DE CHARENTON - 75012 PARIS",2.37926432509,48.8462687898,18,2,15
"15003 - GARE DE MONTPARNASSE","TP DU 1-13 BOULEVARD DE VAUGIRARD - 75015 PARIS",2.3195100269,48.8418071799,67,57,9
"19004 - QUAI DE LA LOIRE","4 QUAI DE LA LOIRE - 75019 PARIS",2.37107452298,48.8833973385,16,15,1
"21307 - CRESSON 1 (ISSY LES MOULINEAUX)","FACE 36 AVENUE VICTOR CRESSON - 92130 ISSY LES MOULINEAUX",2.26863109329,48.8226783671,31,8,23
"42208 - PARIS 4 (CHARENTON)","178 RUE DE PARIS - 94220 CHARENTON",2.40164810556,48.8294214717,23,19,4
"17102 - ALFRED ROLL","14 RUE ALFRED ROLL - 75017 PARIS",2.30003439798,48.8878494938,33,3,30
"12008 - HECTOR MALOT","15 BIS RUE HECTOR MALOT - 75012 PARIS",2.37692936059,48.8468151323,54,0,54
"12014 - NATION","16 PLACE DE LA NATION SUR TPC - 75012 PARIS",2.39552056486,48.8473018,66,62,4
"02004 - REAUMUR MONTORGUEIL","83 ALLEE PIERRE LAZAREF - 75002 PARIS",2.34863246544,48.8669737142,17,1,16
"06009 - GUYNEMER LUXEMBOURG","26 RUE GUYNEMER - 75006 PARIS",2.33239459293,48.8467209826,35,11,24
"42505 - FREROT (GENTILLY)","37 RUE CHARLES FREROT - 94250 GENTILLY",2.35047619893,48.815768792,30,1,29
"20038 - LEON FRAPIE","6 RUE LEON FRAPIE - 75020 PARIS",2.41100303588,48.8735490351,19,18,1
"34006 - MICHELET (SAINT OUEN)","92 AVENUE MICHELET - 93400 SAINT OUEN",2.34396901704,48.9063048061,25,0,25
"21302 - BRIAND (ISSY LES MOULINEAUX)","PLACE DE LA RESISTANCE ANGLE RUE ARISTIDE BRIAND - 92130 ISSY LES MOULINEAUX",2.25101957153,48.8210302529,25,5,20
"06005 - MONTPARNASSE","40 RUE DU MONTPARNASSE - 75006 PARIS",2.32654113413,48.843295457,47,4,43
"17048 - TOCQUEVILLE","12 RUE DE TOCQUEVILLE - 75017 PARIS",2.31400041122,48.8824022854,15,4,11
"08053 - FRIEDLAND","PLACE GEORGES GUILLAUMIN - 75008 PARIS",2.30177143533,48.874750204,38,28,7
"13117 - STADE GEORGES CARPENTIER","95-97 BOULEVARD MASSENA - 75013 PARIS",2.36681968214,48.820495188,67,47,9
"19045 - CANAL SAINT DENIS - BD MACDONALD","145 BOULEVARD MCDONALD - 75019 PARIS",2.3793301091,48.8988301928,65,61,0
"08019 - EUROPE","03 RUE DE NAPLES - 75008 PARIS",2.32135967628,48.8799571638,43,31,11
"15032 - LOURMEL","112 AVE FELIX FAURE - 75015 PARIS",2.28175554014,48.8387344083,57,3,41
"41604 - LAGNY (SAINT MANDE)","126 RUE LAGNY / ANGLE AVENUE JOFFRE - 94160 SAINT MANDE",2.41790976904,48.8493118268,30,30,0
"10037 - VERSION 2 JAURES","EGLISE SAINT JOSEPH ARTISAN - 75010 PARIS",2.36811752799,48.881268164,25,22,3
"15058 - GEORGES POMPIDOU","4 PLACE DU MOULIN DE JAVEL - 75015 PARIS",2.27158991199,48.8400944467,46,23,23
"21004 - JAURES 2 (BOULOGNE-BILLANCOURT)","55 BOULEVARD JEAN JAURES - 92100 BOULOGNE-BILLANCOURT",2.23981899697,48.8400232565,31,0,31
"14007 - SAINT JACQUES FERRUS","1 RUE FERRUS - 75014 PARIS",2.34081188215,48.83136668,34,16,18
"09013 - MAIRIE DU 9EME","20 RUE DE LA GRANGE BATELIERE - 75009 PARIS",2.34075344805,48.8732671376,25,16,9
"18021 - MARCADET - RAMEY","98 RUE MARCADET - 75018 PARIS",2.34498648211,48.890922383,20,18,2
"16032 - EGLISE D AUTEUIL","PLACE DE L'EGLISE D'AUTEUIL - 75016 PARIS",2.26848387135,48.8474984177,20,16,4
"22401 - DE GAULLE (MALAKOFF)","BOULEVARD CHARLES DE GAULLE (STATION DE METRO) - 92240 MALAKOFF",2.29863165412,48.822528306,53,47,6
"21006 - PARIS (BOULOGNE-BILLANCOURT)","162 RUE DE PARIS - 92100 BOULOGNE-BILLANCOURT",2.23349677554,48.8415970289,26,1,25
"12007 - GARE DE LYON CHALON","FACE 54 RUE DE CHALON - 75012 PARIS",2.37420369005,48.8456889756,50,14,36
"21010 - SILLY (BOULOGNE-BILLANCOURT)","93 RUE DE SILLY - 92100 BOULOGNE-BILLANCOURT",2.23253143242,48.8355044075,25,0,25
"14002 - RASPAIL QUINET","FACE 4 BD EDGAR QUINET - 75014 PARIS",2.32955509721,48.8391991672,44,26,18
"05020 - PONT DE SULLY RIVE GAUCHE","03 RUE DES FOSSES SAINT BERNARD - 75005 PARIS",2.35614032748,48.8491596892,21,11,10
"15102 - SQUARE BELA BARTOK","QUAI DE GRENELLE - 75015 PARIS",2.28460760757,48.8511672407,23,14,9
"42009 - VERDUN (IVRY)","157-165 AVENUE DE VERDUN - 94200 IVRY",2.37513019905,48.8072592806,50,27,23
"11034 - PARMENTIER FONTAINE AU ROI","124 AVENUE PARMENTIER - 75011 PARIS",2.37270597867,48.8678767055,47,11,36
"11103 - RICHARD LENOIR","21 RUE PELEE - 75011 PARIS",2.37098437424,48.8600393112,47,35,12
"02014 - SAINT AUGUSTIN","1  3 RUE DAUNOU - 75002 PARIS",2.33251510527,48.8691131526,16,5,11
"11107 - BIBLIOTHEQUE FAIDHERBE","11 RUE FAIDHERBE - 75011 PARIS",2.38372328829,48.8515320053,46,31,13
"16102 - PERGOLÈSE/ MARBEAU","52-54 RUE PERGOLÈSE - 75016 PARIS",2.28151252253,48.8735687069,27,3,24
"02007 - CHABANAIS","1 RUE CHABANAIS - 75002 PARIS",2.33668660824,48.8671234464,28,3,25
"10151 - GARE DU NORD 1","8-10 RUE DE DUNKERQUE - 75010 PARIS",2.35690495842,48.879639353,26,24,2
"21503 - LEDRU ROLLIN (SURESNES)","13/15 RUE LEDRU ROLLIN - 92150 SURESNES",2.22958935221,48.8709204876,24,4,20
"01017 - SAINT HONORE","215 RUE SAINT HONORE - 75001 PARIS",2.33056741758,48.8655711428,20,4,16
"21311 - GAMBETTA (ISSY LES MOULINEAUX)","FACE AU 40 BOULEVARD GAMBETTA - 92130 ISSY LES MOULINEAUX",2.27854960082,48.8274705017,55,8,47
"10042 - POISSONNIÈRE - ENGHIEN","52 RUE D'ENGHIEN / ANGLE RUE DU FAUBOURG POISSONIERE - 75010 PARIS",2.34839523628,48.8724200631,33,4,29
"01022 - RUE DE LA PAIX","37 RUE CASANOVA - 75001 PARIS",2.3304935114,48.8682170168,37,34,3
"19038 - JOURDAIN","9 RUE LASSUS - 75019 PARIS",2.38903816085,48.8755503948,19,19,0
"09005 - SQUARE D'ANVERS","95 RUE DE DUNKERQUE - 75009 PARIS",2.34488440621,48.8826334843,33,11,21
"15064 - JAVEL","DEV 5 AVENUE EMILE ZOLA - 75015 PARIS",2.27841391259,48.8462949183,45,5,40
"11113 - REPUBLIQUE FERRY","FACE 140 BOULEVARD RICHARD LENOIR - 75011 PARIS",2.36932253041,48.8665160798,56,22,34
"06015 - MAZET SAINT ANDRE DES ARTS","10 RUE ANDRE MAZET - 75006 PARIS",2.3391137229,48.8537510735,54,0,54
"05018 - MUTUALITE","20 RUE MONGE - 75005 PARIS",2.35016993902,48.8483857647,37,0,36
"11012 - MONTREUIL VOLTAIRE","93 RUE DE MONTREUIL - 75011 PARIS",2.39307555827,48.8505070118,33,28,5
"33012 - LANDY (AUBERVILLIERS)","FACE 2 RUE DU LANDY - 93300 AUBERVILLIERS",2.37642400951,48.9151561828,30,24,6
"21703 - MARTINIE (VANVES)","5-7 AVENUE MARCEL MARTINIE - 92170 VANVES",2.29130063072,48.8210499235,24,23,1
"43007 - VORGES (VINCENNES)","4 AVENUE VORGES - 94300 VINCENNES",2.43989289939,48.8482577527,25,6,18
"13045 - TOLBIAC ALBERT","FACE 1 RUE JEAN COLLY - 75013 PARIS",2.37053056386,48.8278380326,20,16,4
"43008 - FONTENAY (VINCENNES)","12 RUE DE FONTENAY - 94300 VINCENNES",2.44469088783,48.8477906645,25,22,3
"11109 - REPUBLIQUE PIERRE LEVEE","1 RUE DE LA PIERRE LEVEE - 75011 PARIS",2.37109744847,48.8663313479,23,9,14
"21007 - RHIN DANUBE (BOULOGNE BILLANCOURT)","15 ROND POINT RHIN DANUBE - 92100 BOULOGNE BILLANCOURT",2.22797877475,48.8406492986,52,14,37
"10111 - BOURSE DU TRAVAIL","100 QUAI DE JEMMAPES - 75010 PARIS",2.36403505925,48.8734627987,21,0,21
"12106 - BARTHES TROYES","3 RUE ROLAND BARTHES - 75012 PARIS",2.37908134343,48.8439491758,69,25,43
"06008 - ASSAS LUXEMBOURG","90 RUE D'ASSAS - 75006 PARIS",2.33342838188,48.8437344688,33,23,10
"19101 - SIMON BOLIVAR","36 AVENUE SIMON BOLIVAR - 75019 PARIS",2.38259171498,48.8750704041,24,23,1
"12026 - PARC DE BERCY","61 RUE DE BERCY - 75012 PARIS",2.38221733705,48.837721459,36,8,28
"20025 - GAMBETTA GATINES","13 RUE DES GATINES - 75020 PARIS",2.39781447531,48.8653941647,24,24,0
"14009 - COTY TOMBE D'ISSOIRE","49 RUE DE LA TOMBE D'ISSOIRE - 75014 PARIS",2.33378329803,48.8305559994,36,28,8
"20112 - JOURDAIN","3 RUE DU JOURDAIN - 75020 PARIS",2.38943590833,48.8740924809,20,19,1
"13042 - NATIONALE BACH","150 RUE NATIONALE - 75013 PARIS",2.36410705325,48.8309574641,36,29,7
"12109 - CHAROLAIS","212 RUE DE CHARENTON - 75012 PARIS",2.38756433493,48.8408694597,30,20,10
"12102 - DIDEROT BERCY","224 RUE DE BERCY - 75012 PARIS",2.37040616152,48.8461880015,30,9,21
"16130 - BOIS DE BOULOGNE / PORTE DE LA MUETTE 2","AVENUE LOUIS BARTHOU / PLACE DE LA COLOMBIE - 75016 PARIS",2.26750468357,48.863757931,33,23,10
"09027 - FONTAINE DOUAI","24 RUE DE DOUAI - 75009 PARIS",2.33326337275,48.8823532598,25,20,5
"08102 - LAMENAIS WASHINGTON","1 RUE LAMENNAIS - 75008 PARIS",2.30328866613,48.8735553345,26,26,0
"14122 - BRUNE","1 RUE DU COLONEL MONTEIL - 75014 PARIS",2.30927479983,48.8265029331,19,13,6
"10161 - GARE DE L'EST","FACE 129 RUE DU FBG SAINT MARTIN - 75010 PARIS",2.35950993759,48.8756701125,34,28,6
"13025 - PLACE DE RUNGIS","FACE 35 RUE DE LA FONTAINE A MULARD - 75013 PARIS",2.34738272948,48.8224559476,33,0,32
"17119 - TOQUEVILLE","64 RUE DE TOQUEVILLE - 75017 PARIS",2.31090855294,48.8849243589,31,11,20
"08046 - ALMA MARCEAU","2 Avenue MARCEAU - 75008 PARIS",2.30024954516,48.8651944053,30,10,17
"21111 - LERICHE (CLICHY)","14 RUE DU PROFESSEUR RENE LERICHE - 92110 CLICHY",2.30751971008,48.908110383,50,2,48
"22002 - ARGENSON (NEUILLY)","44 BOULEVARD D'ARGENSON - 92200 NEUILLY",2.26390460269,48.8886487736,25,24,1
"33103 - JAURES 2 (PRE SAINT GERVAIS)","34 AVENUE JEAN JAURES - 93310 LE PRE SAINT GERVAIS",2.40798991939,48.8840012644,23,13,9
"15006 - CHERCHE MIDI","FACE AU 138 RUE DU CHERCHE MIDI - 75015 PARIS",2.31775657923,48.8445759639,36,33,3
"14010 - JEAN MOULIN ALESIA","12 AVENUE JEAN MOULIN - 75014 PARIS",2.32576033285,48.8274269001,39,25,14
"08056 - WAGRAM","21 RUE BEAUJON - 75008 PARIS",2.29655534248,48.8753776475,11,9,2
"05032 - PANTHEON CARMES","2 RUE VALETTE - 75005 PARIS",2.34649965376,48.8469867528,37,33,4
"13104 - GARE D'AUSTERLITZ","FACE 109 QUAI D'AUSTERLITZ - 75013 PARIS",2.36558566558,48.8437904773,27,1,26
"13028 - GOUTHIERE","12 RUE GOUTHIERE - 75013 PARIS",2.351342,48.820507,33,15,18
"13002 - ARAGO","55 BD ARAGO - 75013 PARIS",2.34457514124,48.8348671796,22,16,6
"13033 - PORTE D'ITALIE","15 AVENUE DE LA PORTE D'ITALIE - 75013 PARIS",2.36021848094,48.8173123004,14,12,1
"31007 - PARIS 1 (MONTREUIL)","56 RUE DE PARIS - 93100 MONTREUIL",2.43256978185,48.85747779,25,25,0
"05001 - SAINT GERMAIN HARPE","32 RUE DE LA HARPE - 75005 PARIS",2.34370453672,48.85158134,43,4,39
"34004 - VOLTAIRE (SAINT OUEN)","1 RUE VOLTAIRE - 93400 SAINT OUEN",2.34224814466,48.9024997605,25,22,3
"21705 - HUGO (VANVES)","11 AVENUE VICTOR HUGO - 92170 VANVES",2.28881972951,48.8235996443,25,5,18
"20005 - RUE DE LAGNY SAINT MANDE","2 RUE REYNALDO HAHN - 75020 PARIS",2.41233032884,48.8492660436,19,18,1
"11007 - FAIDHERBE PALAIS DE LA FEMME","17 RUE JEAN MACE - 75011 PARIS",2.3830411772,48.853289319,63,48,15
"19110 - MACDONALD","180 Boulevard Macdonald - 75019 PARIS",2.3755,48.89869,30,23,7
"21306 - LAFAYETTE (ISSY LES MOULINEAUX)","PLACE LAFAYETTE - 92130 ISSY LES MOULINEAUX",2.26381634155,48.8297433877,62,21,41
"17022 - PLACE DE WAGRAM","67 BOULEVARD PEREIRE - 75017 PARIS",2.30411112453,48.8870706076,45,0,45
"35004 - ALLENDE (PANTIN)","AVENUE DE LA GARE - 93500 PANTIN",2.40057659385,48.8973289368,60,27,33
"12013 - RUE MONTGALLET","FACE 39 RUE MONTGALLET - 75012 PARIS",2.38959522722,48.8443126084,16,12,1
"13032 - MASSENA","163 AVENUE D'ITALIE - 75013 PARIS",2.35943293847,48.8198946181,26,11,15
"16041 - VERSAILLES","164 AVENUE DE VERSAILLES - 75016 PARIS",2.26383419115,48.8402193381,43,3,40
"43002 - LAGNY (VINCENNES)","1 BIS RUE DE LAGNY - 94300 VINCENNES",2.42619842213,48.848879019,25,23,2
"07010 - INVALIDES","FACE 3 RUE DE CONSTANTINE - 75007 PARIS",2.3148382795,48.860769958,65,62,2
"15071 - CHAMP DE MARS COTE 16EME","36 RUE DE SUFFREN - 75015 PARIS",2.29500791364,48.8548517488,22,15,7
"41201 - DE RICARD (FONTENAY SOUS BOIS)","RUE LOUIS-XAVIER DE RICARD - 94120 FONTENAY SOUS BOIS",2.47240877487,48.8463028607,41,30,11
"06004 - REGARD","19 RUE DU REGARD - 75006 PARIS",2.32697330559,48.8475178294,44,30,14
"21206 - PERI (MONTROUGE)","35/37 RUE GABRIEL PERI - 92120 MONTROUGE",2.32088453255,48.8182337326,50,44,4
"18014 - DOUDEAUVILLE LEON","26 RUE LEON - 75018 PARIS",2.35357337264,48.8883242185,13,11,2
"08003 - GALILLE","63 RUE GALILEE - 75008 PARIS",2.29852826568,48.8717051914,17,14,2
"07102 - SAINTE CLOTHILDE","FACE 19 RUE CASIMIR PERIER - 75007 PARIS",2.31914905258,48.8578291107,42,37,5
"10027 - DUNKERQUE","4 RUE DE DUNKERQUE - 75010 PARIS",2.35837919245,48.8793551032,19,17,2
"16108 - SABLONS","40 RUE DES SABLONS - 75016 PARIS",2.28189073658,48.8638751313,35,16,19
"05035 - BUFFON AUSTERLITZ","1 RUE BUFFON - 75005 PARIS",2.36374844464,48.8431581782,24,1,23
"41101 - DOUMER (ARCUEIL)","FACE AU 11 AVENUE PAUL DOUMER - 94110 ARCUEIL",2.33671040255,48.8063800103,25,4,21
"10016 - VILLEMIN","29 RUE DES RECOLLETS - 75010 PARIS",2.3598012386,48.8750346559,16,12,4
"23002 - FRANCE (LEVALLOIS)","157 ANATOLE FRANCE - 92300 LEVALLOIS",2.27917948879,48.8983498515,50,5,45
"23005 - BRIAND (LEVALLOIS)","152 RUE ARISTIDE BRIAND - 92300 LEVALLOIS",2.29683625151,48.8960510464,25,12,12
"19124 - ALEXANDER FLEMMING","RUE ALEXANDER FLEMMING - 75019 PARIS",2.40317936797,48.8817697939,31,29,1
"41605 - GENERAL DE GAULLE 2 (SAINT MANDE)","120 AVENUE GENERAL DE GAULLE - 94160 SAINT MANDE",2.41890759472,48.8360886795,22,8,14
"22001 - CHATEAU (NEUILLY)","26 BOULEVARD DU CHATEAU - 92200 NEUILLY",2.27016722527,48.8905119135,25,13,12
"16037 - MOLITOR - MICHEL ANGE","35 RUE MOLITOR - 75016 PARIS",2.26211277357,48.8451820815,52,4,47
"10007 - CHATEAU D'EAU","57 RUE DU CHATEAU D'EAU - 75010 PARIS",2.35548939017,48.8724299733,19,0,18
"16031 - BOULAINVILLIERS","51 RUE DES VIGNES - 75016 PARIS",2.27518841467,48.8561507434,20,18,2
"21101 - VALITON (CLICHY)","4 RUE DE VALITON - 92110 CLICHY",2.29784000737,48.9024924515,25,3,22
"14103 - MAINE LIANCOURT","132 / 136 AVENUE DU MAINE - 75014 PARIS",2.32373144997,48.835064364,27,27,0
"43010 - JARRY (VINCENNES)","139 RUE DE LA JARRY - 94300 VINCENNES",2.45196030631,48.849744957,25,23,2
"14028 - PLAISANCE ALESIA","164 RUE ALESIA - 75014 PARIS",2.31515852905,48.8316397041,47,44,3
"12122 - POLYGONE","AVENUE DU POLYGONE - 75012 PARIS",2.43142108144,48.8354449162,50,29,21
"31012 - CARNOT (MONTREUIL)","35/37 RUE CARNOT - 93100 MONTREUIL",2.44152044245,48.855810311,25,19,6
"05005 - SAINT JACQUES GAY LUSSAC","27 RUE GAY LUSSAC - 75005 PARIS",2.34192394487,48.8447302561,24,21,3
"12031 - LAME","49 RUE GABRIEL LAME - 75012 PARIS",2.38547848656,48.8351380507,36,1,35
"22012 - MICHELIS (NEUILLY)","32 RUE DE MADELEINE MICHELIS - 92200 NEUILLY",2.27740638128,48.8827499155,25,0,25
"16110 - OCTAVE FEUILLET","4-6 RUE OCTAVE FEUILLET - 75016 PARIS",2.27312852714,48.8609983661,21,21,0
"15042 - FARMAN","61 RUE HENRY FARMAN - 75015 PARIS",2.27139647246,48.8337338302,21,18,3
"13001 - PORT ROYAL","51 BOULEVARD PORT ROYAL - 75013 PARIS",2.34466404343,48.837727921,18,18,0
"02012 - QUATRE SEPTEMBRE","10 RUE DE CHOISEUL - 75002 PARIS",2.33603945554,48.869969734,42,11,31
"08055 - TERNES COURCELLES","87 BD COURCELLES - 75008 PARIS",2.29929600386,48.8781888764,29,26,3
"15059 - CITROEN","RUE BALARD - 75015 PARIS",2.27801857157,48.8407143644,64,35,27
"11019 - CHARONNE PHILIPPE AUGUSTE","156 RUE DE CHARONNE - 75011 PARIS",2.39054639062,48.855603162,32,31,1
"08016 - SQUARE LOUIS XVI","DEV 32 RUE PASQUIER - 75008 PARIS",2.32365883074,48.873204401,39,21,18
"20119 - SQUARE DE MENILMONTANT","138 RUE DE MENILMONTANT - 75020 PARIS",2.39669061288,48.8701364587,25,25,0
"10021 - MARCHE ST QUENTIN","4 RUE DES PETITS HOTELS - 75010 PARIS",2.35451144564,48.8773560577,15,11,4
"17044 - PORTE DE SAINT OUEN","1 AVENUE DE LA PORTE DE SAINT OUEN - 75017 PARIS",2.32851451022,48.8979224085,42,37,5
"42008 - CASANOVA (IVRY)","128 AVENUE DANIEL CASANOVA - 94200 IVRY",2.38420701356,48.8142062848,25,2,23
"12012 - REUILLY DIDEROT","71 BOULEVARD DIDEROT - 75012 PARIS",2.38570767222,48.8472963106,21,14,6
"20042 - PYRENEES ERMITAGE","300 RUE DES PYRENEES - 75020 PARIS",2.39173917378,48.8721573799,47,47,0
"07023 - BOURDONNAIS TOUR EIFFEL","QUAI BRANLY - 75007 PARIS",2.29559959845,48.8608977979,60,27,33
"17028 - PORTE DE COURCELLE","34 BOULEVARD DE REIMS - 75017 PARIS",2.29631993184,48.8888000206,36,1,35
"15103 - SQUARE DES CÉVENNES","01 RUE CAUCHY - 75015 PARIS",2.27510833206,48.8434172324,49,28,18
"21021 - PARADIS (BOULOGNE-BILLANCOURT)","FACE AU 128 RUE DES ENFANTS DU PARADIS - 92100 BOULOGNE BILLANCOURT",2.2570058673,48.8331749589,40,38,2
"13038 - CHOISY POINT D'IVRY","28 AVENUE DE CHOISY - 75013 PARIS",2.36333471061,48.8219079688,24,12,12
"22101 - GARE ROUTIERE ( SAINT CLOUD)","GARE ROUTIERE - ARRET TRAM - 92210 SAINT CLOUD",2.22218923568,48.843126206,50,3,47
"21003 - JAURES 1 (BOULOGNE-BILLANCOURT)","2 BOULEVARD JEAN JAURES -  92100 BOULOGNE-BILLANCOURT",2.23701147134,48.8456381388,23,0,23
"13036 - TOLBIAC NATIONALE","86 RUE TOLBIAC - 75013 PARIS",2.36517760348,48.8269001997,36,27,6
"18029 - POTEAU","1 RUE EMILE BLEMONT - 75018 PARIS",2.34154133909,48.8945309045,38,26,12
"43401 - GARE RER (JOINVILLE)","PARC DU STATIONNEMENT / GARE RER - 94340 JOINVILLE-LE-PONT",2.4640255047,48.8199541012,45,18,25
"08017 - ROCHER","14 RUE ROCHER - 75008 PARIS",2.32273156205,48.8760793292,64,1,59
"12105 - BERCY VILLOT","153 RUE DE BERCY - 75012 PARIS",2.37660562531,48.8419071533,35,31,4
"16105 - CREVAUX","1 RUE CREVAUX - 75016 PARIS",2.28114900769,48.8708094287,31,12,17
"09001 - POISSONNIERE","5 RUE DE BELLEFOND - 75009 PARIS",2.34856937339,48.8775014653,17,12,5
"19046 - PORTE DE PANTIN","3 PLACE DE LA PORTE DE PANTIN - 75019 PARIS",2.3952894618,48.8890400681,33,11,22
"12018 - SAINT MANDE - FAVRE","5 AVENUE SAINT MANDE - 75012 PARIS",2.39593262721,48.8456092497,35,31,4
"07103 - BELGRADE","2 RUE DE BELGRADE - 75007 PARIS",2.30223912888,48.8560593101,20,5,15
"11046 - VOLTAIRE","8 place de la république - 75011 PARIS",2.36547,48.86681,18,0,18
"08108 - L'ISLY","10-12 RUE DE L'ISLY - 75008 PARIS",2.32529611781,48.8748231903,56,0,56
"31708 - NOISY (BAGNOLET)","116-118 RUE DE NOISY LE SEC - 93170 BAGNOLET",2.41513809225,48.8744577172,22,21,1
"10107 - MAGENTA PARE","9 RUE AMBROISE PARE - 75010 PARIS",2.35233950656,48.8819497432,47,45,2
"33005 - REPUBLIQUE 2 (AUBERVILLIERS)","FACE AU 106 AVENUE DE LA REPUBLIQUE - 93300 AUBERVILLIERS",2.38954750193,48.9063833981,32,4,28
"07024 - AVENUE RAPP","43 AVENUE RAPP - 75007 PARIS",2.30052833004,48.8581690435,31,8,23
"04017 - PLACE DE L'HOTEL DE VILLE","11 PLACE DE L'HOTEL DE VILLE - 75004 PARIS",2.351621,48.857232,14,3,11
"15002 - BOURDELLE","26 AVENUE DU MAINE - 75015 PARIS",2.32026394678,48.8430853175,17,13,4
"42005 - GAMBETTA (IVRY)","1 PLACE DE LEON GAMBETTA - 94200 IVRY",2.40238243434,48.8147064321,21,4,17
"21502 - VERDUN (SURESNES)","18 BIS RUE DE VERDUN / COUR MADELAINE - 92150 SURESNES",2.22747747677,48.8710030415,25,10,15
"09018 - PLACE PIGALLE","05 RUE DUPERRE - 75009 PARIS",2.33667963144,48.882070227,34,17,17
"21107 - SINCHOLLE (CLICHY)","RUE BERTRAND SINCHOLLE - 92110 CLICHY",2.3040405607,48.899359637,23,3,20
"15065 - HUMBERT","23 RUE EMILE ZOLA - 75015 PARIS",2.2800084119,48.846383773,63,5,58
"18048 - PORTE DE LA CHAPELLE","29 BOULEVARD NEY - 75018 PARIS",2.36087734923,48.8983850227,72,35,32
"16006 - RUE LAURISTON","60 RUE LAURISTON - 75016 PARIS",2.28991872284,48.8692602237,17,16,1
"21304 - BLUM (ISSY LES MOULINEAUX)","FACE 2 PLACE LEON BLUM - 92100 ISSY LES MOULINEAUX",2.26073641335,48.8209551079,20,7,13
"34008 - GARIBALDI (SAINT OUEN)","FACE AU 4 AVENUE GARIBALDI / AVENUE GABRIEL PERI - 93400 SAINT OUEN",2.33149745979,48.9057350761,25,23,2
"15045 - PLAINE","AVENUE DE LA PORTE DE LA PLAINE - 75015 PARIS",2.29258752255,48.8281749364,35,33,2
"10110 - LOUIS BLANC","10 RUE LOUIS BLANC - 75010 PARIS",2.36862871575,48.8793321747,31,29,1
"07020 - CLER","FACE 3 RUE DU CHAMP DE MARS - 75007 PARIS",2.30659853411,48.8566411001,57,0,57
"01020 - RIVOLI CONCORDE","2 RUE CAMBON - 75001 PARIS",2.32524904508,48.8662852212,40,14,26
"14120 - JOURDAN BARBOUX","7 RUE HENRI BARBOUX - 75014 PARIS",2.32680686991,48.8219553065,20,19,1
"15040 - MONCLAR","33 BIS RUE SAINT AMAND - 75015 PARIS",2.30885001547,48.8341171478,36,27,9
"00901 - PORT SOLFÉRINO (STATION MOBILE)","QUAI ANATOLE FRANCE - PONT SOLFERINO - 75007 PARIS",2.32442,48.86138,20,17,2
"17029 - PLACE AIMÉE MAILLART","29 RUE PIERRE DEMOURS - 75017 PARIS",2.29482820074,48.8814111012,36,4,32
"12032 - PORTE DOREE","1 PLACE EDOUARD RENARD - 75012 PARIS",2.40745551593,48.8355450436,35,5,30
"34009 - MAAR (SAINT OUEN)","RUE DORA MAAR / GARE RER - 93400 SAINT OUEN",2.32217124869,48.9052696294,26,19,7
"09009 - SQUARE MONTHOLON","26 RUE MONTHOLON - 75009 PARIS",2.3457855168,48.8766011714,21,2,18
"35006 - DELIZY (PANTIN)","FACE AU 23 RUE DELIZY - 93500 PANTIN",2.40908765273,48.8963319317,22,16,6
"17018 - MONCEAU","4 RUE DE THANN - 75017 PARIS",2.30951238051,48.8811619836,17,5,12
"09008 - TOUR D'AUVERGNE","24 RUE D'AUVERGNE - 75009 PARIS",2.34369843072,48.8791617778,17,0,16
"31002 - REPUBLIQUE (MONTREUIL)","38 RUE DE LA REPUBLIQUE - 93100 MONTREUIL",2.41930708875,48.8528141913,25,22,3
"20116 - HAIES REUNION","53 RUE DES HAIES - 75020 PARIS",2.40242616224,48.8538689677,22,19,3
"18011 - HERBERT","85 RUE PAJOL - 75018 PARIS",2.36342901628,48.8928457112,35,13,21
"13005 - ARAGO CORDELIERE - VERSION 2","2 RUE DES CORDELIERES - 75013 PARIS",2.3485724617,48.835480719,47,10,37
"16042 - PORTE DE SAINT CLOUD","120 BOULEVARD MURAT - 75016 PARIS",2.25797257271,48.83755526,56,3,53
"33009 - FELIX (AUBERVILLIERS)","120 BOULEVARD FELIX FAURE - 93300 AUBERVILLIERS",2.37883847406,48.9078857573,33,9,24
"07001 - DUROC","63 BOULEVARD DES INVALIDES - 75007 PARIS",2.31618388673,48.8477698568,45,30,13
"19022 - BOLIVAR","53 RUE DE MEAUX - 75019 PARIS",2.37340476716,48.8814473211,23,20,0
"18041 - MARTYRS 2","FACE 112 BOULEVARD DE ROCHECHOUART - 75018 PARIS",2.34065184962,48.882194204,20,13,6
"16016 - PAUL DOUMER / LA TOUR","53 AVENUE PAUL DOUMER - 75016 PARIS",2.28084048191,48.8601161096,33,31,1
"14104 - LOSSERAND BOYER-BARRET","4 RUE BOYER BARRET - 75014 PARIS",2.317377,48.833139,22,22,0
"32602 - POULMARCH (LES LILAS)","7 RUE JEAN POULMARCH - 93260 LES LILAS",2.41616066183,48.8794000532,56,53,3
"10017 - GARE DE L'EST SAINT LAURENT","1 RUE DE LA FIDELITE - 75010 PARIS",2.3567967652,48.8745750368,13,2,11
"12033 - SAINT EMILION","FACE 28 RUE FRANCOIS TRUFFAUT - 75012 PARIS",2.3861331687,48.8335083325,66,3,63
"14107 - PORTE DE MONTROUGE 2","2 AVENUE DE LA PORTE DE MONTROUGE - 75014 PARIS",2.32293685711,48.8234163005,33,22,11
"21303 - ILES (ISSY LES MOULINEAUX)","ANGLE AVENUE JEAN MONNET ET BOULEVARD DES ILES -  92130 ISSY LES MOULINEAUX",2.24966529829,48.823450547,31,0,31
"20029 - PORTE DES LILAS","57 RUE DES FRERES FLAVIEN - 75020 PARIS",2.41104629853,48.8780992764,25,25,0
"06027 - VAUGIRARD DESGOFFE","2 RUE BLAISE DESGOFFE - 75006 PARIS",2.32424057814,48.8461298915,31,1,30
"10012 - VINAIGRIERS","58 RUE DES VINAIGRIERS - 75010 PARIS",2.35932361343,48.8732678412,24,6,18
"14116 - ROMAIN ROLLAND","49-51 BD ROMAIN ROLLAND - 75014 PARIS",2.32300304092,48.8203236461,12,5,7
"16038 - RUE MOLITOR","RUE MOLITOR - 75016 PARIS",2.2657241479,48.8450971265,34,8,25
"16029 - MAISON DE RADIO FRANCE","1 RUE GROS - 75016 PARIS",2.27769726945,48.8513599126,45,24,21
"05021 - JUSSIEU","41 RUE JUSSIEU - 75005 PARIS",2.35339837969,48.8471846412,36,0,36
"11040 - TEMPLE JEAN PIERRE TIMBAUD","18 BD DU TEMPLE - 75011 PARIS",2.36613637425,48.8644201417,36,2,34
"21211 - MARNE (MONTROUGE)","100 AVENUE DE LA MARNE - 92120 MONTROUGE",2.30316988763,48.8117498213,38,30,8
"41203 - STALINGRAD (FONTENAY SOUS BOIS)","14 AVENUE STALINGRAD - 94120 FONTENAY SOUS BOIS",2.45552917211,48.8501252321,51,47,4
"31706 - CHATEAU (BAGNOLET)","RUE DU CHATEAU - 93170 BAGNOLET",2.41562220418,48.8630254923,25,25,0
"10010 - JACQUES BONSERGENT","FACE 8 PLACE JACQUES BONSERGENT - 75010 PARIS",2.36114143657,48.8709999898,33,2,30
"18025 - MAIRIE DU 18 EME","81 RUE MONT-CENIS - 75018 PARIS",2.34451792116,48.8929256534,39,30,8
"20122 - DAVOUT VITRUVE","98 RUE VITRUVE - 75020 PARIS",2.40875842782,48.860240121,22,22,0
"08103 - D'ARTOIS BERRY","31 RUE D'ARTOIS - 75008 PARIS",2.30629955027,48.8737943184,23,21,2
"12003 - QUAI DE LA RAPEE","FACE 98 QUAI DE LA RAPEE - 75012 PARIS",2.36689679377,48.8458869464,69,6,63
"08049 - DUNANT","42 AVENUE GEORGE V - 75008 PARIS",2.30083026142,48.8704378054,22,20,1
"15001 - ARRIVEE","8 RUE DE L'ARRIVEE - 75015 PARIS",2.32245193747,48.8437488892,43,14,29
"14112 - FAUBOURG SAINT JACQUES CASSINI","24 RUE MECHAIN - 75014 PARIS",2.33798034198,48.835867721,16,16,0
"02002 - MONTORGUEIL ETIENNE MARCEL","32 RUE ETIENNE MARCEL - 75002 PARIS",2.34628211167,48.8645823775,28,4,24
"21203 - BRIAND (MONTROUGE)","PLACE JULES FERRY / AVENUE ARISTIDE BRIAND - 92120 MONTROUGE",2.32568062304,48.8125109082,28,27,1
"01019 - SAINT HONORE VENDOME","237 RUE SAINT HONORE - 75001 PARIS",2.32828818572,48.8666980085,14,9,5
"09003 - PLACE BARBÈS","PLACE BARBES - 75009 PARIS",2.34904085503,48.8836531972,25,25,0
"42002 - GARE (IVRY)","VIS-A-VIS DU 17 RUE DE LA GARE - 94200 IVRY SUR SEINE",2.39200163582,48.8149264672,21,1,20
"01004 - MARGUERITE DE NAVARRE","12 RUE DES HALLES - 75001 PARIS",2.34675666755,48.8598963144,36,0,35
"20024 - GAMBETTA - PÈRE LACHAISE","11 RUE MALTE BRUN - 75020 PARIS",2.39822866728,48.8642956962,29,12,17
"18020 - RUISSEAU","31 RUE FRANCOEUR - 75018 PARIS",2.34001458544,48.8910412326,18,17,1
"06002 - SAINT PÈRES","1 RUE SAINT BENOIT - 75006 PARIS",2.33344522003,48.8554999844,23,4,19
"14034 - RUE DE L OUEST CHATEAU","48 RUE DE L'OUEST - 75014 PARIS",2.31939214392,48.8361728601,24,24,0
"17020 - NICARAGUA","49 RUE JOUFFROY D'ABBANS - 75017 PARIS",2.30708321666,48.8850699437,26,15,11
"18008 - SQUARE LEON","FACE 36 RUE CAVE - 75018 PARIS",2.35321307162,48.8866670264,33,31,2
"20026 - PELLEPORT","121 AVENUE GAMBETTA - 75020 PARIS",2.40097662355,48.867925154,33,33,0
"31701 - BERTON (BAGNOLET)","3 RUE RAOUL BERTON - 93170 BAGNOLET",2.41781693474,48.868453299,53,34,1
"11003 - ROQUETTE DALLERY","29 RUE KELLER - 75011 PARIS",2.37524034703,48.8555128613,32,2,28
"01025 - TEMPLE DE L'ORATOIRE","2 RUE DE L'ORATOIRE - 75001 PARIS",2.34005523282,48.8613894683,18,4,14
"08009 - SAINT LAZARE RER","1 RUE DE L'ISLY - 75008 PARIS",2.32648148622,48.874808025,28,1,27
"32606 - GARDE CHASSE (LES LILAS)","49 RUE DU GARDE CHASSE - 93260 LES LILAS",2.41891236965,48.8832402516,25,25,0
"11104 - CHARONNE DU BUREAU","170 RUE DE CHARONNE - 75011 PARIS",2.39253252663,48.8559437796,20,20,0
"09024 - LAFAYETTE TAITBOUT","27 RUE TAITBOUT - 75009 PARIS",2.33529683977,48.8733858054,53,23,28
"19034 - PANTIN","20 AVENUE DE LA PORTE DE PANTIN - 75019 PARIS",2.39781364219,48.8903419552,52,25,27
"08035 - NARVICK","54 RUE DE LA BIENFAISANCE - 75008 PARIS",2.31316505436,48.8765999408,45,42,3
"13029 - ITALIE","30 AVENUE D'ITALIE - 75013 PARIS",2.35618336918,48.8290320407,40,39,1
"02021 - CLERY","4 RUE DE CLERY - 75002 PARIS",2.34452661511,48.8674674415,43,22,21
"22004 - CHARLES DE GAULLE (NEUILLY)","162 AVENUE CHARLES DE GAULLE - 92200 NEUILLY",2.26153081999,48.8847072934,28,24,4
"15017 - PROCESSION","7 PLACE FALGUIERE - 75015 PARIS",2.31046623803,48.8363338618,21,21,0
"22014 - HUGO (NEUILLY)","35 BOULEVARD VICTOR HUGO - 92200 NEUILLY",2.27807242437,48.8878010686,25,1,24
"41601 - GENERAL DE GAULLE (SAINT MANDE)","86 AVENUE DU GENERAL DE GAULLE - 94160 SAINT MANDE",2.4174104354,48.8390304318,24,15,9
"31010 - STALINGRAD (MONTREUIL)","67-69 RUE DE STALINGRAD - 93100 MONTREUIL",2.44498742534,48.8568111231,44,41,3
"14124 - PORTE D'ARCUEIL","AVENUE DAVID WEIL - 75014 PARIS",2.33378529043,48.8211117705,24,23,1
"13514 - GARE D'AUSTERLITZ 2","9 BOULEVARD DE L'HOPITAL - 75013 PARIS",2.36346863686,48.8418361736,19,2,17
"42707 - OKABE (LE KREMLIN-BICETRE)","51 avenue de Fontainebleau - 94270 Le Kremlin-Bicetre",2.36180984825,48.8123678294,25,23,2
"21701 - LARMEROUX (VANVES)","FACE 5 BIS RUE LARMEROUX - 92170 VANVES",2.28098948048,48.8169399113,28,26,2
"06108 - SAINT ROMAIN CHERCHE MIDI","20 RUE SAINT ROMAIN - 75006 PARIS",2.32128942101,48.8470300806,16,16,0
"13035 - IVRY TOLBIAC","116 AVENUE DE CHOISY - 75013 PARIS",2.36023184076,48.8259701364,22,5,16
"20111 - L'ISLE ADAM PYRENÉES","60 RUE VILLIERS DE L'ISLE ADAM - 75020 PARIS",2.39622289099,48.8673622972,20,20,0
"20118 - ORTEAUX MOURAUD","100 RUE DES ORTEAUX - 75020 PARIS",2.40876290776,48.8555864285,23,22,1
"01008 - LOUVRE / COQUILLERE","9 rue COQUILLIERE 75001 PARIS",2.34260946382,48.8635805065,22,0,21
"05110 - LACEPEDE","27 RUE LACEPEDE - 75005 PARIS",2.35190222528,48.8438603532,23,16,7
"31705 - CHAMPEAUX (BAGNOLET)","RUE DES CHAMPEAUX (PRES DE LA GARE ROUTIERE) - 93170 BAGNOLET",2.41617072443,48.864527821,50,47,3
"20040 - PARC DE BELLEVILLE","57 & 36 RUE JULIEN LACROIX - 75020 PARIS",2.38422247271,48.8703936716,26,24,2
"33006 - KARMAN (AUBERVILLIERS)","FACE 143 RUE ANDRE KARMAN - 93300 AUBERVILLIERS",2.38505201824,48.910143671,29,26,3
"18042 - PIGALLE GERMAIN PILLON","FACE 36 BOULEVARD DE CLICHY - 75018 PARIS",2.33626263902,48.8827280905,21,17,3
"17008 - PORCHE POUCHET","7 PLACE ARNAUD TZANCK - 75017 PARIS",2.32247847786,48.8987737928,36,5,31
"05104 - BUFFON","47 RUE BUFFON - 75005 PARIS",2.35891268132,48.8419161798,55,12,42
"05002 - SAINT JACQUES","20 RUE SOMMERARD - 75005 PARIS",2.3450158353,48.8503104329,35,1,33
"05024 - PLACE MONGE","4 RUE DOLOMIEU - 75005 PARIS",2.35247243722,48.842735043,21,10,11
"13050 - QUAI PANHARD ET LEVASSOR","23 QUAI PANHARD ET LEVASSOR - 75013 PARIS",2.3844403546,48.8283698938,59,29,30
"19114 - MANIN SECRETAN","31 RUE MANIN - 75019 PARIS",2.37863702192,48.8792751957,20,20,0
"16030 - MIRABEAU","4 PLACE DE BARCELONE - 75016 PARIS",2.27355626497,48.84766571,55,13,38
"06103 - MEZIERES RENNES","16 RUE DE MEZIERES - 75006 PARIS",2.33044682028,48.8502970102,55,36,19
"14111 - DENFERT-ROCHEREAU CASSINI","18 RUE CASSINI - 75014 PARIS",2.33598303047,48.8375492922,24,23,1
"09036 - ATHENES CLICHY","4 RUE D'ATHENES - 75009 PARIS",2.32956021946,48.8781137879,20,12,7
"05013 - ULM ERASME","13 RUE ERASME - 75005 PARIS",2.34459664993,48.8425479497,20,19,1
"17025 - COURCELLES","2 RUE DE CHAZELLES - 75017 PARIS",2.30346740669,48.8794303755,35,29,6
"20032 - AMANDIERS","55 RUE DES CENDRIERS - 75020 PARIS",2.38935041243,48.866295106,12,9,3
"15070 - BLANC","88 RUE BALARD - 75015 PARIS",2.27827419306,48.8386338715,36,4,32
"15105 - SUFFREN FÉDÉRATION","84 RUE DE LA FEDERATION - 75015 PARIS",2.29787643147,48.8527667435,24,7,17
"08054 - HOCHE ALBRECHT","10 AVENUE BERTHIER ALBRECHT - 75008 PARIS",2.30130313831,48.8761403983,32,19,12
"07009 - ASSEMBLEE NATIONALE","FACE 119 RUE DE LILLE - 75007 PARIS",2.3201312769,48.8613738909,62,54,8
"04009 - VILLAGE SAINT PAUL","6 RUE SAINT PAUL - 75004 PARIS",2.36087834343,48.8527259722,28,6,22
"16104 - PAUL VALÉRY","26-32 RUE PAUL VALERY - 75016 PARIS",2.28886639604,48.8713610398,34,29,4
"19035 - PORTE CHAUMONT","RUE SIGMUND FREUD / PORTE CHAUMONT - 75019 PARIS",2.39784641538,48.8857332999,21,2,19
"02022 - BONNE NOUVELLE SAINT FIACRE","20 RUE SAINT FIACRE - 75002 PARIS",2.34590581139,48.8707827795,36,21,15
"20035 - PYRENEES","262 RUE DES PYRENEES - 75020 PARIS",2.39503998122,48.8694128912,26,26,0
"17107 - BERTHIER STUART MERRIL","182 BOULEVARD BERTHIER - 75017 PARIS",2.29323415107,48.8859131283,36,1,35
"20023 - PELLEPORT BELGRAND","44 RUE PELLEPORT - 75020 PARIS",2.40398083638,48.8650008185,15,12,3
"11009 - RUE DES BOULETS","45 RUE DES BOULETS - 75011 PARIS",2.38902165058,48.8521930954,23,0,22
"10014 - BEAUREPAIRE","14 RUE DE MARSEILLE - 75010 PARIS",2.36393331138,48.871662662,56,7,48
"16118 - MICHEL ANGE","91 RUE MICHEL ANGE - 75016 PARIS",2.2583736582,48.8406103997,26,21,5
"06021 - BONAPARTE BEAUX ARTS","17 RUE DES BEAUX ARTS - 75006 PARIS",2.33479762295,48.8564374097,19,14,5
"41302 - CHARLES DE GAULLE (NOGENT)","FACE AU 60 AVENUE CHARLES DE GAULLES - 94130 NOGENT SUR MARNE",2.47946426871,48.8364811292,50,49,0
"15051 - ROLLET","1 PLACE HENRI ROLLET - 75015 PARIS",2.29346711913,48.8359810045,8,5,3
"05019 - POISSY","8-10 RUE DE POISSY - 75005 PARIS",2.3529701836,48.8496904114,25,4,21
"20117 - SAINT FARGEAU MORTIER","72 RUE SAINT-FARGEAU - 75020 PARIS",2.4082034543,48.872747269,32,32,0
"35009 - LOLIVE 1 (PANTIN)","104 AVENUE LOLIVE - 93500 PANTIN",2.4091077377,48.8921394093,22,10,12
"17012 - MAIRIE DU 17EME","FACE 16 RUE DES BATIGNOLLES - 75017 PARIS",2.32220602535,48.8841012932,23,22,1
"02010 - BOULEVARD MONTMARTRE","21 RUE D'UZES - 75002 PARIS",2.34316333439,48.8707757573,30,5,25
"15021 - CROIX NIVERT","DEV 2 RUE JOSEPH LOUVILLE - 75015 PARIS",2.29757200598,48.8448064217,63,31,32
"09012 - ROUGEMONT","3-5 RUE ROUGEMONT - 75009 PARIS",2.3458364556,48.8715422136,30,9,21
"14004 - PORT ROYAL COCHIN","111 BD PORT ROYAL - 75014 PARIS",2.34079466687,48.8384318255,23,18,5
"16043 - PLACE DE PASSY","2 PLACE DE PASSY - 75016 PARIS",2.27750054694,48.8578029171,15,13,2
"17117 - PEREIRE SAUSSURE","2 BIS BOULEVARD PEREIRE - 75017 PARIS",2.31012053655,48.8881856419,30,11,19
"05014 - CALVIN","8 RUE JEAN CALVIN - 75005 PARIS",2.34855201812,48.8416327086,28,13,11
"11013 - NATION VOLAIRE","5 PLACE DE LA NATION - 75011 PARIS",2.39493447775,48.8492766382,46,45,1
"09101 - CADET LA FAYETTE","24-26 RUE CADET - 75009 PARIS",2.34352359155,48.8756396718,19,8,11
"08036 - RIO","39 RUE DE LISBONNE - 75008 PARIS",2.30969422142,48.8774556768,39,24,15
"04003 - PONT SAINT LOUIS","1 QUAI AUX FLEURS - 75004 PARIS",2.35208864944,48.8529448879,21,5,16
"15060 - MONDRIAN","9 PLACE DE LA MONTAGNE DU GOULET - 75015 PARIS",2.2773458971,48.8442928656,21,14,5
"12010 - MICHEL BIZOT","251 AVENUE DAUMESNIL - 75012 PARIS",2.4018255858,48.8374904465,19,9,9
"19033 - CAMBRAI","30 RUE DE CAMBRAI - 75019 PARIS",2.38113380225,48.8959473685,44,6,37
"20002 - PIXERECOURT","FACE 65 RUE PIXERECOURT - 75020 PARIS",2.3960122233,48.873803623,15,15,0
"23009 - FRANCE (LEVALLOIS)","18 RUE ANATOLE FRANCE - 92300 LEVALLOIS-PERRET",2.28813601438,48.8887627777,50,8,42
"42013 - BARBES (IVRY)","RUE BARBES / AVENUE DE VERDUN - 94200 IVRY SUR SEINE",2.36822972924,48.8159110965,24,21,3
"13043 - DUNOIS CLISSON","55 RUE DUNOIS - 75013 PARIS",2.36741586675,48.8322724586,51,11,40
"16007 - LONGCHAMP","4 RUE DE LONGCHAMP - 75016 PARIS",2.292519101,48.8649104486,39,23,16
"16013 - AVENUE HENRI MARTIN","71 AVENUE HENRI MARTIN - 75016 PARIS",2.27688168701,48.8640767117,34,27,7
"23008 - REPUBLIQUE (LEVALLOIS)","PLACE DE LA REPUBLIQUE - 92300 LEVALLOIS",2.28891416006,48.8931946754,25,9,16
"08011 - DUBLIN","1 RUE CLAPEYRON - 75008 PARIS",2.32451663515,48.8809353568,16,15,1
"14030 - LOSSERAND - PERNETY","61 RUE PERNETY - 75014 PARIS",2.31760933939,48.834254628,33,32,1
"07026 - PLACE DE FINLANDE","39 QUAI D'ORSAY - 75007 PARIS",2.31138,48.86269,25,17,5
"16008 - GALILEE KLEBER","1 RUE GALILEE - 75016 PARIS",2.29078138011,48.8674118657,32,31,1
"08007 - HAUSSMANN ROME","1 RUE DE ROME - 75008 PARIS",2.32557011172,48.8742300556,30,6,22
"13041 - PORTE D'IVRY","4 AVENUE D'IVRY - 75013 PARIS",2.36852869997,48.821962441,50,43,7
"18007 - GOUTTE D' OR","65 RUE DE LA GOUTTE D'OR - 75018 PARIS",2.34994199169,48.8851980094,18,18,0
"15063 - SAINT CHARLES - CONVENTION","59 RUE DE LA CONVENTION - 75015 PARIS",2.28320900002,48.8432953589,19,3,16
"21202 - BARBES (MONTROUGE)","16 RUE BARBES - 92120 MONTROUGE",2.32750599924,48.8172449117,34,33,1
"12115 - PORTE DE VINCENNES","22 AVENUE DE LA PORTE DE VINCENNES - 75012 PARIS",2.41563660715,48.8464193693,33,27,6
"13107 - MARCHAND SANTE","12 PASSAGE VICTOR MARCHAND - 75013 PARIS",2.34196743683,48.8288402184,45,5,40
"18015 - CUSTINE","23 RUE CUSTINE - 75018 PARIS",2.34701133583,48.8886197165,41,39,2
"42012 - BARBUSSE (IVRY)","1 RUE HENRY BARBUSSE - 94200 IVRY",2.37967058912,48.810200348,25,19,6
"18035 - PORTE MONTMARTRE","FACE 66 RUE RENE BINET - 75018 PARIS",2.33689345356,48.8991359901,37,34,1
"21002 - DENFERT ROCHEREAU (BOULOGNE-BILLANCOURT)","PLACE DENFERT ROCHEREAU - 92100 BOULOGNE BILLANCOURT",2.24621423158,48.8431766559,20,18,2
"17115 - PORTE DE SAINT OUEN","22 AVENUE DE LA PORTE DE SAINT OUEN - 75017 PARIS",2.32955851745,48.8987600807,27,25,2
"21301 - SAINT VINCENT (ISSY LES MOULINEAUX)","21 RUE SAINT VINCENT - 92130 ISSY LES MOULINEAUX",2.25386941996,48.8194899939,34,3,31
"15024 - LAOS","88 AVENUE DE SUFFREN - 75015 PARIS",2.30129338467,48.8509146082,22,15,7
"08101 - LONDRES AMSTERDAM","42 RUE DE LONDRES - 75008 PARIS",2.32648354097,48.8780344615,23,4,17
"10022 - CHABROL SAINT QUENTIN","FACE 124 RUE DU FAUBOURG SAINT DENIS - 75010 PARIS",2.35611908299,48.8768669058,42,22,17
"05016 - CONTRESCARPE-THOUIN","1 RUE THOUIN - 75005 PARIS",2.34949778986,48.8450622564,16,7,9
"34003 - CURIE (SAINT OUEN)","2 RUE NEUVE PIERRE CURIE - 93400 SAINT OUEN",2.33530123747,48.9013270326,25,25,0
"20031 - DURIS","33 RUE DURIS - 75020 PARIS",2.38772449616,48.8655408671,30,28,2
"10020 - CHABROL","59 RUE CHABROL - 75010 PARIS",2.35122216805,48.8771003511,11,8,2
"18112 - HÔPITAL BICHAT","2 RUE ARTHUR RANC - 75018 PARIS",2.33365337616,48.8980143432,25,24,1
"12101 - CHARENTON PRAGUE","89 TER RUE DE CHARENTON - 75012 PARIS",2.37635844943,48.84817513,19,0,19
"08044 - VAN DYCK","2 RUE ALFRED DE VIGNY - 75008 PARIS",2.30525444822,48.8783613836,33,29,4
"33003 - FAURE (AUBERVILLIERS)","ANGLE RUE BORDIER ET BOULEVARD FELIX FAURE  - 93300 AUBERVILLIERS",2.38312549091,48.9039640246,45,31,14
"18013 - CHATEAU ROUGE","28 RUE POULET - 75018 PARIS",2.35051773822,48.8877817707,17,16,1
"08045 - ALMA","FACE 3 AVENUE MONTAIGNE - 75008 PARIS",2.30254918239,48.8649209825,57,37,14
"17036 - AVENUE DE TERNES","2-4 PLACE TRISTAN BERNARD - 75017 PARIS",2.29149818491,48.8794928867,27,0,27
"19002 - TANGER","45 & 48 RUE RIQUET - 75019 PARIS",2.37077448806,48.8893514535,40,25,15
"08115 - BASSANO","10 RUE VERNET - 75008 PARIS",2.30018657227,48.8713453271,21,21,0
"16115 - RAFFET","52 RUE RAFFET - 75016 PARIS",2.2629300391,48.8526188461,41,38,2
"15110 - PLACE ROBERT GUILLEMARD","PLACE ROBERT GUILLEMARD - 75015 PARIS",2.28103938101,48.8362103615,23,5,18
"12039 - DECAEN","45 AVENUE DU GENERAL MICHEL BIZOT - 75012 PARIS",2.40092778813,48.8348126298,38,18,20
"15054 - CHANDON","293 RUE LECOURBE - 75015 PARIS",2.28758230704,48.837970342,19,0,17
"14029 - GERGOVIE VERCINGETORIX","112 RUE VERCINGETORIX - 75014 PARIS",2.31339164711,48.8342592499,67,44,23
"17011 - PORTE DE CLICHY FRAGONARD","4 RUE FRAGONARD - 75017 PARIS",2.31467800112,48.8941513833,54,0,54
"18018 - CARPEAUX","13 RUE CARPEAUX - 75018 PARIS",2.33082039648,48.8907472102,19,17,2
"10024 - BUISSON SAINT LOUIS","2 RUE DU BUISSON SAINT LOUIS - 75010 PARIS",2.37220322486,48.8718258899,18,17,1
"32605 - HORTENSIAS (LES LILAS)","1 ALLEE DES HORTENSIAS - 93260 LES LILAS",2.42327263606,48.8821730942,22,22,0
"12017 - ST MANDE NETTER","82 AVENUE SAINT MANDE - 75012 PARIS",2.40509982632,48.8446346263,39,15,24
"35003 - VAILLANT (PANTIN)","ANGLE RUE GENERAL GOSSERAND ET AVENUE EDOUARD VAILLANT - 93500 PANTIN",2.39325582933,48.902691618,20,9,11
"08549 - PLACE DUNANT","39 AVENUE GEORGE V - 75008 PARIS",2.30112319174,48.8704091351,24,19,5
"06001 - INSTITUT","5 QUAI MALAQAIS - 75006 PARIS",2.33583135304,48.8576156786,17,12,5
"08026 - MESSINE","2 AVENUE MESSINE - 75008 PARIS",2.31546549458,48.8754572002,13,8,5
"09002 - MAUBEUGE CONDORCET","19 RUE D'ABBEVILLE - 75009 PARIS",2.34914749354,48.8792233706,15,5,9
"16019 - HENRI MARTIN","FACE 98 AV. HENRI MARTIN - 75016 PARIS",2.2688065502,48.8630253154,36,19,17
"18104 - CHAPELLE","2 IMPASSE DE LA CHAPELLE - 75018 PARIS",2.3594354549,48.892656892,17,14,2
"13106 - BOBILLOT MERY","17 RUE BOBILLOT - 75013 PARIS",2.35424653463,48.8298753727,24,19,5
"09014 - FAUBOURG MONTMARTRE","55 RUE DU FAUBOURG MONTMARTRE - 75009 PARIS",2.34077266233,48.8753297232,34,16,18
"05031 - LACEPEDE","2 RUE LACEPEDE - 75005 PARIS",2.35461598268,48.8436748454,55,40,15
"16044 - STADE FRANCAIS","24 AVENUE DE LA PORTE DE SAINT CLOUD - 75016 PARIS",2.25219106054,48.8387133632,32,27,4
"18001 - DAMREMONT CAULAINCOURT","6 RUE DAMREMONT - 75018 PARIS",2.33264836385,48.8872746426,18,13,5
"20030 - PERE LACHAISE","54 BOULEVARD MENILMONTANT - 75020 PARIS",2.38713395757,48.8634111074,56,55,1
"16022 - RUE JEAN BOLOGNE","16 RUE JEAN BOLOGNE - 75016 PARIS",2.28002739531,48.8575668898,17,16,0
"10025 - ECLUSES SAINT MARTIN","148 QUAI DE JEMMAPES - 75010 PARIS",2.36601144898,48.8774203431,15,12,3
"20121 - MENILMONTANT BOYER","27 RUE BOYER - 75020 PARIS",2.39202048929,48.8689101274,18,16,2
"42207 - PARIS 3 (CHARENTON)","136 RUE DE PARIS - 94220 CHARENTON",2.40587672301,48.8266572063,28,18,10
"16101 - MALAKOFF","161 AVENUE MALAKOFF - 75016 PARIS",2.28345759338,48.8766926874,34,4,30
"17110 - LEGENDRE","83 RUE LEGENDRE - 75017 PARIS",2.32036786584,48.8877723254,29,12,17
"08012 - CLICHY","10 BOULEVARD DES BATIGNOLLES SUR TPC - 75008 PARIS",2.32620717539,48.8833180444,47,21,24
"03012 - GAITE LYRIQUE","FACE 8 RUE SALOMON DE CAUS - 75003 PARIS",2.35366081625,48.8674979894,24,0,24
"16033 - MICHEL ANGE AUTEUIL","85 RUE JEAN DE LA FONTAINE - 75016 PARIS",2.26525382116,48.8484276137,31,18,13
"20036 - MENILMONTANT - PELLEPORT","164 RUE DE MENILMONTANT - 75020 PARIS",2.39895960233,48.8706826338,19,19,0
"15027 - GIDE","4 RUE ANDRE GIDE  - 75015 PARIS",2.3127071211,48.8365662244,20,19,1
"21310 - KLEBER (ISSY LES MOULINEAUX)","4 RUE KLEBER - 92130 ISSY LES MOULINEAUX",2.27225043196,48.8269297674,24,3,21
"20115 - PORTE DE BAGNOLET","102 RUE LOUIS LUMIERE - 75020 PARIS",2.41041111584,48.8644236486,20,20,0
"06024 - SAINT GERMAIN DES PRES","55 RUE DES SAINTS PERES - 75006 PARIS",2.33015352477,48.8539423092,26,17,9
"07101 - SEVRES BABYLONE","BOULEVARD RASPAIL - 75007 PARIS",2.32660601948,48.8522416177,54,5,49
"32006 - EGLISE SAINT JUSTE (SAINT DENIS)","AVENUE DU PRESIDENT WILSON / PARKING DE L'EGLISE SAINT JUSTE - 93210 SAINT DENIS",2.35848245779,48.908586717,38,26,12
"18024 - CLIGNANCOURT MARCADET","105 RUE DE CLIGNANCOURT - 75018 PARIS",2.34863647806,48.8914577262,39,34,4
"21014 - HAMEAU FLEURI (BOULOGNE-BILLANCOURT)","FACE AU 12 RUE DU HAMEAU FLEURIE - 92100 BOULOGNE BILLANCOURT",2.24120465344,48.8314286501,22,12,10
"02001 - SEBASTOPOL-GRENATA","12 RUE GRENETA - 75002 PARIS",2.35166987369,48.8652406217,34,0,33
"08028 - HOUSSAYE","1 RUE ARSENE HOUSSAYE - 75008 PARIS",2.29770677798,48.8734340814,28,26,2
"13051 - QUAI FRANCOIS MAURIAC TOLBIAC","9 QUAI FRANCOIS MAURIAC - 75013 PARIS",2.37910490091,48.8326410104,19,3,16
"20103 - LE VAU BERTEAUX","24 RUE LE VAU - 75020 PARIS",2.41103061245,48.8680343904,25,25,0
"21209 - GEORGES MESSIER (MONTROUGE)","35 RUE MOLIERE - 92120 MONTROUGE",2.31462974778,48.8111018378,30,27,3
"06018 - MICHELET ASSAS","13 RUE MICHELET - 75006 PARIS",2.33506788557,48.842540966,16,16,0
"19103 - MANIN CARRIERES","139 RUE MANIN - 75019 PARIS",2.3920931199,48.884770858,20,7,13
"16003 - ANDRE MAUROIS","2 BIS BOULEVARD ANDRE MAUROIS - 75016 PARIS",2.27895982497,48.8779308172,29,2,27
"21702 - BASCH (VANVES)","6 AVENUE VICTOR BASCH - 92170 VANVES",2.29195987247,48.8189398643,51,45,6
"23011 - BINEAU (LEVALLOIS)","16 BOULEVARD BINEAU - 92300 LEVALLOIS-PERRET",2.28402369122,48.8866813725,25,5,20
"15068 - BOULEVARD VICTOR","FACE 5 BOULEVARD MARTIAL VALIN - 75015 PARIS",2.27033837975,48.8381713102,20,8,8
"19037 - PORTE DES LILAS","304 RUE DE BELLEVILLE - 75019 PARIS",2.40476969113,48.8766039189,31,31,0
"14003 - RASPAIL SCHOELCHER","2 RUE VICTOR SCHOELCHER - 75014 PARIS",2.33130360086,48.8368508158,47,32,15
"17109 - BOIS LE PRÊTRE","22 BD DE BOIS LE PRETRE - 75017 PARIS",2.32013366144,48.8995382831,31,18,13
"20033 - ETIENNE DOLET","29 RUE ETIENNE DOLLET - 75020 PARIS",2.38513309762,48.8680494102,31,27,4
"15029 - EMERIAU","27 RUE EMERIAU - 75015 PARIS",2.28725016347,48.8506147509,53,30,23
"41102 - RENAN (ARCUEIL)","rue Ernest Renan / angle rue Vaucouleurs (A la sortie du RER B) - 94110 ARCUEIL",2.33468965466,48.808800395,43,39,4
"19120 - ALOUETTES","20 RUE CARDUCCI - 75019 PARIS",2.38609972037,48.8775162569,27,26,0
"15019 - VAUGIRARD CAMBRONNE","3 RUE PAUL BARRUEL - 75015 PARIS",2.30450742096,48.8400577188,37,37,0
"20004 - PORTE DE VINCENNES BIS","10 RUE DU COMMANDANT L'HERMINIER - 75020 PARIS",2.41602296002,48.8470644175,16,16,0
"20020 - PYRENEES RENOUVIER","183 RUE DES PYRENEES - 75020 PARIS",2.40042185204,48.8609593323,28,27,1
"10033 - LARIBOISIERE","15 RUE SAINT VINCENT DE PAUL - 75010 PARIS",2.35243051484,48.8809557416,24,22,2
"15018 - ALLERAY","85 RUE DUTOT - 75015 PARIS",2.30687451712,48.8365756643,56,52,3
"10028 - GARE DU NORD DENAN","24 RUE DE DUNKERQUE - 75010 PARIS",2.35282005703,48.880370621,29,27,2
"18039 - EOLE","41 RUE D'AUBERVILLIERS - 75018 PARIS",2.36688624824,48.8870212034,20,18,1
"16015 - RUE DE BASSANO","1 RUE DE BASSANO - 75016 PARIS",2.29614960099,48.8681445105,15,13,2
"13020 - MENDES FRANCE","FACE 15 RUE PAUL KLEE - 75013 PARIS",2.37053233099,48.8390842183,45,37,8
"20014 - ALEXANDRE DUMAS","142 BD CHARONNE - 75020 PARIS",2.39482500935,48.8561673796,33,28,3
"17014 - PORTE DE CLICHY - AVENUE DE CLICHY","12 AVENUE DE LA PORTE DE CLICHY - 75017 PARIS",2.31071441901,48.8967873959,34,3,31
"41202 - CHARMES (FONTENAY SOUS BOIS)","ANGLE AVENUE DES CHARMES / AVENUE FOCH - 94120 FONTENAY SOUS BOIS",2.46308263962,48.8436743414,65,9,56
"20104 - RUE LOUIS LUMIÈRE","68 RUE LOUIS LUMIERE - 75020 PARIS",2.41112578186,48.8621619807,22,21,1
"14020 - PORTE DE MONTROUGE","AV. DE LA PORTE DE MONTROUGE - 75014 PARIS",2.32117350214,48.8212167897,54,25,29
"12011 - CHARENTON","160 RUE CHARENTON - 75012 PARIS",2.38257893505,48.8448673196,36,5,31
"13110 - MOULIN DE LA POINTE","66 RUE DU MOULIN DE LA POINTE - 75013 PARIS",2.35634514417,48.821039287,22,10,12
"08041 - CHAMPS ELYSEES LINCOLN","16 RUE DE LINCOLN - 75008 PARIS",2.30322242397,48.8706901579,38,35,1
